{"type": "FeatureCollection", "features": [{"type": "Feature", "properties": {"id": 1, "nombre": "COMPLEJO EDUCATIVO DELGADO"}, "geometry": {"type": "Point", "coordinates": [-89.1711977, 13.7243631]}}, {"type": "Feature", "properties": {"id": 2, "nombre": "CENTRO ESCOLAR PEDRO PABLO CASTILLO"}, "geometry": {"type": "Point", "coordinates": [-89.1690429, 13.7291816]}}, {"type": "Feature", "properties": {"id": 3, "nombre": "INSTITUTO NACIONAL DE CIUDAD DELGADO"}, "geometry": {"type": "Point", "coordinates": [-89.1695918, 13.7433205]}}, {"type": "Feature", "properties": {"id": 4, "nombre": "CENTRO ESCOLAR CANTON CALLE REAL"}, "geometry": {"type": "Point", "coordinates": [-89.1667191, 13.7581481]}}, {"type": "Feature", "properties": {"id": 5, "nombre": "CENTRO ESCOLAR CANTON ARENAL"}, "geometry": {"type": "Point", "coordinates": [-89.1786278, 13.7594994]}}, {"type": "Feature", "properties": {"id": 6, "nombre": "CENTRO ESCOLAR CASERIO SAN ANTONIO LAS VEGAS"}, "geometry": {"type": "Point", "coordinates": [-89.1667714, 13.7705095]}}, {"type": "Feature", "properties": {"id": 7, "nombre": "CENTRO ESCOLAR COMUNIDAD LOS LLANITOS PABELLON 2"}, "geometry": {"type": "Point", "coordinates": [-89.1678859, 13.786618]}}, {"type": "Feature", "properties": {"id": 8, "nombre": "CENTRO ESCOLAR ISAURA HERNANDEZ DE MAYORA"}, "geometry": {"type": "Point", "coordinates": [-89.1579735, 13.7757919]}}, {"type": "Feature", "properties": {"id": 9, "nombre": "CENTRO ESCOLAR COMUNIDAD PRADERA III"}, "geometry": {"type": "Point", "coordinates": [-89.1621701, 13.7931712]}}, {"type": "Feature", "properties": {"id": 10, "nombre": "CENTRO ESCOLAR CATOLICO SAN TARSICIO"}, "geometry": {"type": "Point", "coordinates": [-89.1496997, 13.7488732]}}, {"type": "Feature", "properties": {"id": 11, "nombre": "CENTRO ESCOLAR REFUGIO SIFONTES"}, "geometry": {"type": "Point", "coordinates": [-89.1675811, 13.7261213]}}, {"type": "Feature", "properties": {"id": 12, "nombre": "CENTRO ESCOLAR JUANA LOPEZ"}, "geometry": {"type": "Point", "coordinates": [-89.1675613, 13.7179959]}}, {"type": "Feature", "properties": {"id": 13, "nombre": "COLEGIO MIGUEL ANGEL ASTURIAS"}, "geometry": {"type": "Point", "coordinates": [-89.1510068, 13.7318737]}}, {"type": "Feature", "properties": {"id": 14, "nombre": "COMPLEJO EDUCATIVO DOCTOR ORLANDO DE SOLA"}, "geometry": {"type": "Point", "coordinates": [-89.1512414, 13.7241681]}}, {"type": "Feature", "properties": {"id": 15, "nombre": "DIRECCION GENERAL DE ESTADISTICAS Y CENSOS"}, "geometry": {"type": "Point", "coordinates": [-89.1704477, 13.7136388]}}, {"type": "Feature", "properties": {"id": 16, "nombre": "CENTRO ESCOLAR REINO DE HOLANDA"}, "geometry": {"type": "Point", "coordinates": [-89.1730149, 13.7128874]}}, {"type": "Feature", "properties": {"id": 17, "nombre": "CASA COMUNAL COLONIA ALTOS DE SANTA MARIA, CANTON EL ARENAL"}, "geometry": {"type": "Point", "coordinates": [-89.1894301, 13.7547421]}}, {"type": "Feature", "properties": {"id": 18, "nombre": "CENTRO ESCOLAR SECTOR UNIDO"}, "geometry": {"type": "Point", "coordinates": [-89.1830588, 13.7566368]}}, {"type": "Feature", "properties": {"id": 19, "nombre": "CENTRO ESCOLAR EDELMIRA MOLINA"}, "geometry": {"type": "Point", "coordinates": [-89.1698861, 13.7179509]}}]}