<?xml version="1.0" encoding="UTF-8"?><kml xmlns="http://www.opengis.net/kml/2.2"><Document><name>Zonas Ciudad Delgado</name><Style id="z"><LineStyle><color>ffeed322</color><width>2</width></LineStyle><PolyStyle><color>2aeed322</color></PolyStyle></Style><Placemark><name>Zona 1</name><styleUrl>#z</styleUrl><MultiGeometry><Polygon><outerBoundaryIs><LinearRing><coordinates>-89.17177,13.716052,0 -89.17234,13.71619,0 -89.172518,13.716363,0 -89.172304,13.71664,0 -89.172304,13.717125,0 -89.172589,13.717402,0 -89.172589,13.71754,0 -89.173016,13.717887,0 -89.173016,13.718371,0 -89.173265,13.718614,0 -89.173408,13.718614,0 -89.173728,13.718925,0 -89.173728,13.719341,0 -89.174013,13.719618,0 -89.173941,13.719825,0 -89.173585,13.720241,0 -89.173585,13.720449,0 -89.173443,13.720725,0 -89.173443,13.721002,0 -89.173514,13.721072,0 -89.173585,13.721418,0 -89.173728,13.721626,0 -89.173799,13.722041,0 -89.174084,13.722387,0 -89.174155,13.72301,0 -89.174368,13.723357,0 -89.17444,13.723772,0 -89.174724,13.724049,0 -89.174724,13.724257,0 -89.174618,13.724361,0 -89.174119,13.724638,0 -89.173906,13.724638,0 -89.173728,13.724811,0 -89.173301,13.725642,0 -89.173443,13.726126,0 -89.17323,13.726403,0 -89.17323,13.726542,0 -89.173158,13.726611,0 -89.173158,13.727234,0 -89.172482,13.727823,0 -89.172269,13.727823,0 -89.172055,13.727615,0 -89.171699,13.727407,0 -89.170952,13.72668,0 -89.170952,13.726611,0 -89.170667,13.726334,0 -89.170667,13.725642,0 -89.170347,13.725261,0 -89.169279,13.725261,0 -89.169172,13.725157,0 -89.169172,13.724949,0 -89.169101,13.72488,0 -89.169101,13.724464,0 -89.16903,13.724395,0 -89.16903,13.723287,0 -89.168532,13.722733,0 -89.168389,13.722456,0 -89.168033,13.72218,0 -89.167962,13.722041,0 -89.168033,13.721626,0 -89.167962,13.721556,0 -89.167962,13.721279,0 -89.167891,13.72121,0 -89.167891,13.721002,0 -89.167998,13.720899,0 -89.169137,13.720691,0 -89.169279,13.720622,0 -89.169457,13.720379,0 -89.169599,13.719825,0 -89.169742,13.719548,0 -89.169742,13.719341,0 -89.169813,13.719271,0 -89.169813,13.719133,0 -89.170098,13.718441,0 -89.170098,13.718164,0 -89.170169,13.718094,0 -89.170169,13.717056,0 -89.170098,13.716986,0 -89.170098,13.716502,0 -89.170204,13.716398,0 -89.170774,13.716398,0 -89.170845,13.716467,0 -89.171343,13.716467,0 -89.171414,13.716536,0 -89.171592,13.716363,0 -89.171664,13.716156,0 -89.17177,13.716052,0</coordinates></LinearRing></outerBoundaryIs></Polygon></MultiGeometry></Placemark><Placemark><name>Zona 2</name><styleUrl>#z</styleUrl><MultiGeometry><Polygon><outerBoundaryIs><LinearRing><coordinates>-89.161734,13.712728,0 -89.162019,13.712867,0 -89.162517,13.712867,0 -89.163015,13.713074,0 -89.163229,13.713074,0 -89.1633,13.713144,0 -89.163727,13.713144,0 -89.163798,13.713213,0 -89.164297,13.713144,0 -89.164368,13.713213,0 -89.164724,13.713213,0 -89.165151,13.713421,0 -89.165435,13.713351,0 -89.16572,13.713144,0 -89.166432,13.713144,0 -89.167001,13.71349,0 -89.1675,13.71349,0 -89.167571,13.713559,0 -89.167713,13.713559,0 -89.168781,13.714736,0 -89.169137,13.714736,0 -89.169528,13.715186,0 -89.169599,13.715325,0 -89.169599,13.715809,0 -89.169742,13.716156,0 -89.170098,13.716433,0 -89.170098,13.716986,0 -89.170169,13.717056,0 -89.170169,13.718094,0 -89.170098,13.718164,0 -89.170098,13.718441,0 -89.169813,13.719133,0 -89.169813,13.719271,0 -89.169742,13.719341,0 -89.169742,13.719548,0 -89.169599,13.719825,0 -89.169457,13.720379,0 -89.169279,13.720622,0 -89.169137,13.720691,0 -89.168923,13.720691,0 -89.168852,13.72076,0 -89.168211,13.720829,0 -89.16814,13.720899,0 -89.167998,13.720899,0 -89.167856,13.721037,0 -89.167428,13.721037,0 -89.167357,13.720968,0 -89.166717,13.721037,0 -89.16661,13.720933,0 -89.16661,13.720725,0 -89.166503,13.720622,0 -89.166147,13.720552,0 -89.166076,13.720483,0 -89.165862,13.720622,0 -89.16572,13.720483,0 -89.165507,13.720483,0 -89.165293,13.72076,0 -89.164439,13.72076,0 -89.164083,13.720552,0 -89.164047,13.720587,0 -89.164047,13.720864,0 -89.163905,13.721072,0 -89.163905,13.721764,0 -89.164047,13.721972,0 -89.164047,13.722318,0 -89.164119,13.722387,0 -89.164119,13.723634,0 -89.164047,13.723703,0 -89.164047,13.724187,0 -89.164261,13.724395,0 -89.164261,13.724672,0 -89.164332,13.724741,0 -89.16419,13.725018,0 -89.16419,13.725295,0 -89.164546,13.725988,0 -89.164546,13.726126,0 -89.16483,13.726611,0 -89.16483,13.726749,0 -89.165115,13.727165,0 -89.165186,13.727442,0 -89.1654,13.727719,0 -89.165044,13.728134,0 -89.165044,13.72848,0 -89.164617,13.729311,0 -89.164154,13.729761,0 -89.163869,13.729761,0 -89.163763,13.729865,0 -89.163763,13.730281,0 -89.16419,13.730558,0 -89.164261,13.730973,0 -89.164154,13.731077,0 -89.163371,13.731077,0 -89.163086,13.731423,0 -89.162731,13.731285,0 -89.162517,13.731285,0 -89.16209,13.731008,0 -89.161805,13.731008,0 -89.161698,13.730904,0 -89.161627,13.730627,0 -89.16177,13.730488,0 -89.16177,13.730281,0 -89.161627,13.730004,0 -89.161627,13.729796,0 -89.161485,13.729519,0 -89.160844,13.728965,0 -89.16056,13.728411,0 -89.16056,13.727857,0 -89.160773,13.72758,0 -89.160915,13.727234,0 -89.160915,13.726819,0 -89.160987,13.726749,0 -89.160987,13.726472,0 -89.161058,13.726403,0 -89.161058,13.726057,0 -89.16088,13.725884,0 -89.160453,13.725884,0 -89.160097,13.726022,0 -89.159919,13.725919,0 -89.159919,13.725226,0 -89.15999,13.725157,0 -89.15999,13.72488,0 -89.160061,13.724811,0 -89.15999,13.724741,0 -89.15999,13.724395,0 -89.159848,13.724118,0 -89.159848,13.72398,0 -89.159492,13.723357,0 -89.159492,13.723149,0 -89.15967,13.722976,0 -89.160097,13.722837,0 -89.160346,13.722526,0 -89.160346,13.72211,0 -89.15999,13.721695,0 -89.15999,13.720795,0 -89.159919,13.720725,0 -89.159919,13.720449,0 -89.160061,13.720241,0 -89.160133,13.719687,0 -89.160346,13.719202,0 -89.160346,13.718994,0 -89.160204,13.718717,0 -89.160595,13.718267,0 -89.160809,13.718198,0 -89.160987,13.718025,0 -89.160987,13.717679,0 -89.160844,13.717402,0 -89.160773,13.716848,0 -89.16056,13.716433,0 -89.16056,13.716017,0 -89.160915,13.715602,0 -89.160915,13.715325,0 -89.160844,13.715255,0 -89.160844,13.715117,0 -89.160488,13.714702,0 -89.160488,13.714425,0 -89.160702,13.714009,0 -89.160702,13.713871,0 -89.160915,13.713524,0 -89.160915,13.713386,0 -89.161307,13.713005,0 -89.161521,13.712936,0 -89.161734,13.712728,0</coordinates></LinearRing></outerBoundaryIs></Polygon></MultiGeometry></Placemark><Placemark><name>Zona 3</name><styleUrl>#z</styleUrl><MultiGeometry><Polygon><outerBoundaryIs><LinearRing><coordinates>-89.169635,13.732462,0 -89.169777,13.732462,0 -89.170026,13.732704,0 -89.170098,13.732843,0 -89.170098,13.733189,0 -89.170276,13.733362,0 -89.170845,13.733708,0 -89.171059,13.733708,0 -89.17113,13.733777,0 -89.171414,13.733362,0 -89.171486,13.733293,0 -89.171628,13.733293,0 -89.171735,13.733396,0 -89.171664,13.734158,0 -89.17177,13.734262,0 -89.171913,13.734262,0 -89.172269,13.73447,0 -89.172625,13.734816,0 -89.172838,13.734885,0 -89.173016,13.735128,0 -89.173016,13.735404,0 -89.172874,13.735681,0 -89.172874,13.735958,0 -89.172945,13.736028,0 -89.172945,13.736235,0 -89.172874,13.736305,0 -89.172874,13.736928,0 -89.173016,13.737205,0 -89.172945,13.737274,0 -89.172874,13.737689,0 -89.172731,13.737897,0 -89.172731,13.738382,0 -89.172874,13.73859,0 -89.172874,13.738936,0 -89.172731,13.739143,0 -89.172731,13.73949,0 -89.172518,13.739836,0 -89.172553,13.740217,0 -89.172696,13.740286,0 -89.173052,13.740286,0 -89.173123,13.740217,0 -89.173265,13.740217,0 -89.173479,13.73994,0 -89.173977,13.739732,0 -89.174155,13.739559,0 -89.174155,13.73949,0 -89.174546,13.739178,0 -89.175045,13.738901,0 -89.175258,13.738901,0 -89.175472,13.738763,0 -89.175899,13.738763,0 -89.17597,13.738693,0 -89.176753,13.738693,0 -89.176824,13.738624,0 -89.176895,13.738693,0 -89.177394,13.738693,0 -89.177572,13.73859,0 -89.177572,13.73852,0 -89.178177,13.737932,0 -89.178497,13.738243,0 -89.178568,13.738451,0 -89.178746,13.738624,0 -89.17896,13.738624,0 -89.179031,13.738693,0 -89.179387,13.738763,0 -89.1796,13.738901,0 -89.179743,13.738832,0 -89.180241,13.738832,0 -89.180561,13.739143,0 -89.180703,13.739351,0 -89.180703,13.739559,0 -89.18081,13.739663,0 -89.181024,13.739732,0 -89.181202,13.739905,0 -89.181202,13.740805,0 -89.181131,13.740874,0 -89.181202,13.741013,0 -89.181202,13.741221,0 -89.181131,13.74129,0 -89.181131,13.741498,0 -89.180988,13.741705,0 -89.18081,13.741878,0 -89.180454,13.741948,0 -89.179031,13.743471,0 -89.178817,13.74354,0 -89.17839,13.743817,0 -89.178034,13.743886,0 -89.177821,13.744233,0 -89.177465,13.744233,0 -89.177287,13.744406,0 -89.177287,13.744683,0 -89.176967,13.745202,0 -89.176753,13.745202,0 -89.176326,13.744994,0 -89.175756,13.744925,0 -89.175507,13.745306,0 -89.175258,13.745548,0 -89.174902,13.745687,0 -89.174724,13.745929,0 -89.174724,13.746206,0 -89.175151,13.746552,0 -89.175151,13.746691,0 -89.174973,13.746795,0 -89.17476,13.746656,0 -89.174618,13.746656,0 -89.173479,13.74721,0 -89.171948,13.748837,0 -89.171948,13.748976,0 -89.17177,13.749218,0 -89.171699,13.749149,0 -89.171557,13.749149,0 -89.171414,13.74901,0 -89.171308,13.748906,0 -89.171237,13.748699,0 -89.170987,13.748456,0 -89.170845,13.748456,0 -89.170774,13.748387,0 -89.170703,13.748456,0 -89.170418,13.748456,0 -89.170062,13.748595,0 -89.16992,13.748595,0 -89.169849,13.748526,0 -89.169421,13.748595,0 -89.169244,13.748699,0 -89.169066,13.748941,0 -89.168994,13.748872,0 -89.168781,13.748872,0 -89.168567,13.748664,0 -89.167784,13.748664,0 -89.1675,13.748803,0 -89.167001,13.748872,0 -89.166717,13.74901,0 -89.166503,13.74901,0 -89.166432,13.749079,0 -89.166325,13.748976,0 -89.166325,13.748768,0 -89.166396,13.748699,0 -89.166468,13.748283,0 -89.16629,13.748041,0 -89.166147,13.747972,0 -89.165151,13.747972,0 -89.16508,13.748041,0 -89.164937,13.748041,0 -89.164866,13.747972,0 -89.164652,13.747972,0 -89.164474,13.747799,0 -89.164332,13.747314,0 -89.164261,13.747245,0 -89.164261,13.747106,0 -89.16419,13.747037,0 -89.164119,13.746621,0 -89.16362,13.745721,0 -89.16362,13.744683,0 -89.163691,13.744613,0 -89.163691,13.744198,0 -89.16209,13.742848,0 -89.161165,13.742779,0 -89.16088,13.743056,0 -89.160809,13.743056,0 -89.160631,13.742813,0 -89.160631,13.742121,0 -89.160702,13.742052,0 -89.160702,13.741705,0 -89.160844,13.741359,0 -89.160844,13.741082,0 -89.160915,13.741013,0 -89.160915,13.740598,0 -89.161414,13.739628,0 -89.161556,13.73949,0 -89.161698,13.738936,0 -89.16177,13.738866,0 -89.16177,13.738659,0 -89.161556,13.738382,0 -89.161556,13.738243,0 -89.161485,13.738174,0 -89.161414,13.73762,0 -89.161627,13.737135,0 -89.162197,13.736374,0 -89.16241,13.73582,0 -89.162695,13.735404,0 -89.163478,13.734851,0 -89.163549,13.734712,0 -89.163549,13.734366,0 -89.163656,13.734262,0 -89.163798,13.734193,0 -89.164225,13.734193,0 -89.164297,13.734124,0 -89.164439,13.734124,0 -89.16508,13.733708,0 -89.165293,13.733708,0 -89.165364,13.733639,0 -89.165542,13.733812,0 -89.165542,13.73395,0 -89.165649,13.734054,0 -89.165791,13.734054,0 -89.165862,13.733985,0 -89.16629,13.733985,0 -89.166717,13.733777,0 -89.166895,13.73395,0 -89.167001,13.734193,0 -89.167357,13.734124,0 -89.1675,13.734262,0 -89.167678,13.734089,0 -89.167962,13.733604,0 -89.168318,13.733327,0 -89.168389,13.73312,0 -89.16871,13.732669,0 -89.169493,13.7326,0 -89.169635,13.732462,0</coordinates></LinearRing></outerBoundaryIs></Polygon></MultiGeometry></Placemark><Placemark><name>Zona 4</name><styleUrl>#z</styleUrl><MultiGeometry><Polygon><outerBoundaryIs><LinearRing><coordinates>-89.150416,13.717298,0 -89.151057,13.717298,0 -89.152552,13.717921,0 -89.15362,13.717921,0 -89.153691,13.717852,0 -89.153833,13.717852,0 -89.154047,13.71806,0 -89.15426,13.71806,0 -89.154474,13.717852,0 -89.154972,13.717921,0 -89.155043,13.71799,0 -89.155328,13.717783,0 -89.15547,13.717783,0 -89.155648,13.717956,0 -89.155791,13.718233,0 -89.155719,13.718371,0 -89.155719,13.718579,0 -89.155897,13.718752,0 -89.156111,13.718752,0 -89.156218,13.718856,0 -89.156218,13.718994,0 -89.156075,13.719202,0 -89.156004,13.719479,0 -89.155719,13.719756,0 -89.155719,13.720033,0 -89.15604,13.720414,0 -89.156253,13.720414,0 -89.156467,13.720206,0 -89.15668,13.720206,0 -89.157748,13.721245,0 -89.158033,13.721245,0 -89.158246,13.721037,0 -89.15846,13.721037,0 -89.1591,13.72166,0 -89.159314,13.72166,0 -89.159456,13.721591,0 -89.159634,13.721418,0 -89.159777,13.721141,0 -89.159777,13.720933,0 -89.159883,13.720829,0 -89.15999,13.720933,0 -89.15999,13.721695,0 -89.160346,13.72211,0 -89.160346,13.722526,0 -89.160097,13.722837,0 -89.15967,13.722976,0 -89.159492,13.723149,0 -89.159492,13.723357,0 -89.159848,13.72398,0 -89.159848,13.724118,0 -89.15999,13.724395,0 -89.15999,13.724741,0 -89.160061,13.724811,0 -89.15999,13.72488,0 -89.15999,13.725157,0 -89.159919,13.725226,0 -89.159919,13.725919,0 -89.160097,13.726022,0 -89.160453,13.725884,0 -89.16088,13.725884,0 -89.161058,13.726057,0 -89.161058,13.726403,0 -89.160987,13.726472,0 -89.160987,13.726749,0 -89.160915,13.726819,0 -89.160915,13.727234,0 -89.160773,13.72758,0 -89.16056,13.727857,0 -89.16056,13.728411,0 -89.160844,13.728965,0 -89.161485,13.729519,0 -89.161627,13.729796,0 -89.161627,13.730004,0 -89.16177,13.730281,0 -89.16177,13.730488,0 -89.161592,13.730661,0 -89.161307,13.7308,0 -89.160738,13.730869,0 -89.160453,13.731008,0 -89.160239,13.731008,0 -89.160168,13.731077,0 -89.15967,13.731146,0 -89.159599,13.731215,0 -89.159243,13.731215,0 -89.158922,13.730904,0 -89.158353,13.729727,0 -89.158246,13.729623,0 -89.157962,13.729623,0 -89.157748,13.729761,0 -89.157321,13.729831,0 -89.15725,13.7299,0 -89.155684,13.7299,0 -89.155577,13.729796,0 -89.155577,13.729658,0 -89.155506,13.729588,0 -89.155506,13.729381,0 -89.155435,13.729311,0 -89.155435,13.729104,0 -89.155363,13.729034,0 -89.155292,13.728619,0 -89.155079,13.728203,0 -89.154723,13.727996,0 -89.154723,13.727926,0 -89.15515,13.727442,0 -89.15515,13.727165,0 -89.155221,13.727096,0 -89.15515,13.726957,0 -89.15515,13.72668,0 -89.155008,13.726472,0 -89.154936,13.726195,0 -89.154723,13.725988,0 -89.154723,13.725919,0 -89.153833,13.725261,0 -89.153762,13.725261,0 -89.15241,13.726576,0 -89.148993,13.727199,0 -89.148779,13.727407,0 -89.148423,13.727615,0 -89.147961,13.728065,0 -89.14789,13.728273,0 -89.147569,13.728723,0 -89.147285,13.728723,0 -89.147213,13.728792,0 -89.146644,13.728792,0 -89.146466,13.728965,0 -89.146466,13.729519,0 -89.146359,13.729623,0 -89.145719,13.729207,0 -89.145042,13.72855,0 -89.145114,13.726819,0 -89.145185,13.726749,0 -89.145185,13.726403,0 -89.145256,13.726334,0 -89.145256,13.726057,0 -89.145327,13.725988,0 -89.145256,13.724949,0 -89.145327,13.72488,0 -89.145398,13.724257,0 -89.145469,13.724187,0 -89.145398,13.723772,0 -89.145042,13.723426,0 -89.14522,13.723253,0 -89.145932,13.723253,0 -89.147071,13.72263,0 -89.147498,13.72256,0 -89.147747,13.722318,0 -89.147747,13.722041,0 -89.147818,13.721972,0 -89.147747,13.721141,0 -89.147676,13.721072,0 -89.147676,13.720656,0 -89.147605,13.720587,0 -89.147605,13.720172,0 -89.147534,13.720102,0 -89.147534,13.719756,0 -89.147463,13.719687,0 -89.147463,13.719133,0 -89.147391,13.719064,0 -89.147391,13.718648,0 -89.14732,13.718579,0 -89.147249,13.717748,0 -89.147356,13.717644,0 -89.147996,13.717644,0 -89.148068,13.717575,0 -89.148423,13.717575,0 -89.148495,13.717506,0 -89.148922,13.717506,0 -89.148993,13.717437,0 -89.14942,13.717437,0 -89.149491,13.717367,0 -89.150345,13.717367,0 -89.150416,13.717298,0</coordinates></LinearRing></outerBoundaryIs></Polygon></MultiGeometry></Placemark><Placemark><name>Zona 5</name><styleUrl>#z</styleUrl><MultiGeometry><Polygon><outerBoundaryIs><LinearRing><coordinates>-89.170774,13.748387,0 -89.170845,13.748456,0 -89.170987,13.748456,0 -89.171237,13.748699,0 -89.171308,13.748906,0 -89.171414,13.74901,0 -89.171557,13.749149,0 -89.171699,13.749149,0 -89.171806,13.749253,0 -89.171735,13.749391,0 -89.171735,13.749599,0 -89.171664,13.749668,0 -89.171735,13.750291,0 -89.171948,13.750637,0 -89.172233,13.750845,0 -89.172304,13.751399,0 -89.172518,13.751884,0 -89.172518,13.752438,0 -89.172375,13.752645,0 -89.172304,13.753407,0 -89.172091,13.753684,0 -89.172091,13.75403,0 -89.171806,13.754376,0 -89.171592,13.75493,0 -89.171308,13.755277,0 -89.171308,13.755761,0 -89.171094,13.756177,0 -89.171094,13.757423,0 -89.171023,13.757561,0 -89.17145,13.758185,0 -89.17145,13.758323,0 -89.171023,13.758808,0 -89.171023,13.759846,0 -89.170632,13.760296,0 -89.170418,13.760435,0 -89.16992,13.760573,0 -89.169671,13.760747,0 -89.169599,13.760885,0 -89.169599,13.761231,0 -89.169528,13.7613,0 -89.169528,13.761785,0 -89.169386,13.761993,0 -89.169386,13.762616,0 -89.169457,13.762685,0 -89.169457,13.763031,0 -89.169528,13.763101,0 -89.169528,13.763516,0 -89.169279,13.763828,0 -89.169066,13.763828,0 -89.168389,13.764209,0 -89.168461,13.764416,0 -89.168816,13.764693,0 -89.169101,13.765039,0 -89.169315,13.765386,0 -89.169315,13.765524,0 -89.168852,13.765836,0 -89.167428,13.766182,0 -89.16693,13.766459,0 -89.166788,13.766459,0 -89.166574,13.766597,0 -89.166218,13.766667,0 -89.166005,13.766805,0 -89.165649,13.766874,0 -89.165364,13.767013,0 -89.16508,13.766667,0 -89.165008,13.766667,0 -89.16483,13.766493,0 -89.16483,13.766424,0 -89.164439,13.766113,0 -89.164154,13.765974,0 -89.164012,13.765974,0 -89.163478,13.766493,0 -89.163264,13.76684,0 -89.163015,13.767082,0 -89.162659,13.767082,0 -89.162588,13.767013,0 -89.162446,13.767013,0 -89.162019,13.766736,0 -89.161307,13.766043,0 -89.160738,13.765974,0 -89.160382,13.765766,0 -89.160133,13.765455,0 -89.160133,13.765178,0 -89.16056,13.764555,0 -89.161414,13.763724,0 -89.161414,13.763308,0 -89.161485,13.763239,0 -89.161485,13.762962,0 -89.161414,13.762893,0 -89.161485,13.762824,0 -89.161414,13.762685,0 -89.161414,13.762408,0 -89.160987,13.761647,0 -89.160915,13.7613,0 -89.160702,13.760816,0 -89.160773,13.760539,0 -89.161129,13.760123,0 -89.161271,13.759846,0 -89.161271,13.759708,0 -89.161592,13.759396,0 -89.161876,13.759396,0 -89.162161,13.759535,0 -89.162339,13.759708,0 -89.162339,13.759846,0 -89.162588,13.760019,0 -89.163229,13.75995,0 -89.163656,13.759743,0 -89.164083,13.759396,0 -89.164581,13.759258,0 -89.164795,13.759119,0 -89.164973,13.758946,0 -89.165115,13.758669,0 -89.165115,13.757838,0 -89.165044,13.757769,0 -89.165044,13.757561,0 -89.16483,13.757146,0 -89.164759,13.7568,0 -89.164617,13.756592,0 -89.164617,13.756454,0 -89.164225,13.755934,0 -89.164083,13.755934,0 -89.163869,13.756142,0 -89.163798,13.756142,0 -89.163478,13.755761,0 -89.163264,13.755415,0 -89.163264,13.755277,0 -89.163122,13.755069,0 -89.163051,13.754723,0 -89.16298,13.754653,0 -89.163051,13.754238,0 -89.163478,13.753407,0 -89.163691,13.75313,0 -89.163763,13.752853,0 -89.163941,13.75268,0 -89.164439,13.752472,0 -89.164866,13.752195,0 -89.165222,13.752126,0 -89.165364,13.751988,0 -89.165507,13.751918,0 -89.16572,13.751918,0 -89.165827,13.751814,0 -89.165969,13.751538,0 -89.165969,13.751261,0 -89.166112,13.751053,0 -89.166112,13.750776,0 -89.16604,13.750707,0 -89.16604,13.749807,0 -89.166183,13.74953,0 -89.166183,13.749253,0 -89.166361,13.749079,0 -89.166503,13.74901,0 -89.166717,13.74901,0 -89.167001,13.748872,0 -89.167215,13.748872,0 -89.167286,13.748803,0 -89.1675,13.748803,0 -89.167784,13.748664,0 -89.168567,13.748664,0 -89.168781,13.748872,0 -89.168994,13.748872,0 -89.169066,13.748941,0 -89.169244,13.748699,0 -89.169421,13.748595,0 -89.169564,13.748595,0 -89.169635,13.748526,0 -89.170062,13.748595,0 -89.170418,13.748456,0 -89.170703,13.748456,0 -89.170774,13.748387,0</coordinates></LinearRing></outerBoundaryIs></Polygon></MultiGeometry></Placemark><Placemark><name>Zona 6</name><styleUrl>#z</styleUrl><MultiGeometry><Polygon><outerBoundaryIs><LinearRing><coordinates>-89.169493,13.70615,0 -89.170133,13.70615,0 -89.170204,13.70622,0 -89.170703,13.70622,0 -89.170845,13.706289,0 -89.171094,13.7066,0 -89.171094,13.70757,0 -89.171165,13.707639,0 -89.171165,13.708124,0 -89.171308,13.70847,0 -89.171486,13.708643,0 -89.171628,13.708643,0 -89.171699,13.708712,0 -89.172625,13.708781,0 -89.172696,13.708851,0 -89.172838,13.708851,0 -89.172945,13.708955,0 -89.172375,13.710062,0 -89.172375,13.710201,0 -89.172162,13.710616,0 -89.172162,13.710755,0 -89.171664,13.711724,0 -89.171094,13.712555,0 -89.170738,13.713247,0 -89.170738,13.713455,0 -89.170667,13.713524,0 -89.170667,13.714009,0 -89.170525,13.714286,0 -89.170525,13.714494,0 -89.170382,13.71484,0 -89.170382,13.715117,0 -89.17024,13.715463,0 -89.17024,13.71574,0 -89.170169,13.715809,0 -89.170169,13.716086,0 -89.169991,13.716329,0 -89.16992,13.716329,0 -89.169742,13.716156,0 -89.169671,13.716017,0 -89.169671,13.715879,0 -89.169599,13.715809,0 -89.169599,13.715325,0 -89.169315,13.714978,0 -89.169244,13.714771,0 -89.168781,13.714736,0 -89.167713,13.713559,0 -89.167571,13.713559,0 -89.1675,13.71349,0 -89.167001,13.71349,0 -89.166432,13.713144,0 -89.16572,13.713144,0 -89.165435,13.713351,0 -89.165151,13.713421,0 -89.164724,13.713213,0 -89.164368,13.713213,0 -89.164297,13.713144,0 -89.164012,13.713144,0 -89.163941,13.713213,0 -89.163798,13.713213,0 -89.163727,13.713144,0 -89.1633,13.713144,0 -89.163229,13.713074,0 -89.163015,13.713074,0 -89.162517,13.712867,0 -89.162019,13.712867,0 -89.16177,13.712694,0 -89.161983,13.712209,0 -89.162161,13.712036,0 -89.162517,13.711897,0 -89.162624,13.711793,0 -89.16298,13.711032,0 -89.1633,13.71072,0 -89.163514,13.710651,0 -89.164297,13.709751,0 -89.164439,13.709682,0 -89.164652,13.709682,0 -89.164724,13.709612,0 -89.164937,13.709612,0 -89.165293,13.709405,0 -89.165435,13.709405,0 -89.165542,13.709301,0 -89.165613,13.709024,0 -89.165364,13.708781,0 -89.164937,13.708781,0 -89.164546,13.708539,0 -89.164546,13.708401,0 -89.164688,13.708193,0 -89.165008,13.707881,0 -89.16508,13.707881,0 -89.165578,13.707466,0 -89.165791,13.707397,0 -89.166218,13.707743,0 -89.166361,13.707743,0 -89.166432,13.707812,0 -89.166645,13.707812,0 -89.167001,13.707951,0 -89.167642,13.707951,0 -89.167891,13.707777,0 -89.168033,13.707431,0 -89.168389,13.707016,0 -89.168389,13.706877,0 -89.168532,13.7066,0 -89.168923,13.706358,0 -89.169279,13.706289,0 -89.169493,13.70615,0</coordinates></LinearRing></outerBoundaryIs></Polygon></MultiGeometry></Placemark><Placemark><name>Zona 7</name><styleUrl>#z</styleUrl><MultiGeometry><Polygon><outerBoundaryIs><LinearRing><coordinates>-89.165507,13.720483,0 -89.16572,13.720483,0 -89.165862,13.720622,0 -89.166076,13.720483,0 -89.166147,13.720552,0 -89.166503,13.720622,0 -89.16661,13.720725,0 -89.16661,13.720933,0 -89.166717,13.721037,0 -89.167357,13.720968,0 -89.167428,13.721037,0 -89.167784,13.721037,0 -89.167891,13.721141,0 -89.167962,13.721279,0 -89.167962,13.721556,0 -89.168033,13.721626,0 -89.168033,13.721764,0 -89.167962,13.721833,0 -89.167962,13.722041,0 -89.168033,13.72218,0 -89.168389,13.722456,0 -89.168532,13.722733,0 -89.16903,13.723287,0 -89.16903,13.724395,0 -89.169101,13.724464,0 -89.169172,13.725226,0 -89.169066,13.72533,0 -89.168852,13.72533,0 -89.168781,13.725261,0 -89.16871,13.72533,0 -89.168354,13.72533,0 -89.168283,13.725399,0 -89.168069,13.72533,0 -89.167962,13.725434,0 -89.16782,13.726057,0 -89.167535,13.726472,0 -89.167464,13.72668,0 -89.167322,13.726819,0 -89.16725,13.727234,0 -89.167179,13.727303,0 -89.167179,13.727511,0 -89.167108,13.72758,0 -89.167108,13.727857,0 -89.167037,13.727926,0 -89.166966,13.728827,0 -89.166895,13.728896,0 -89.166895,13.730073,0 -89.167108,13.73035,0 -89.167179,13.730488,0 -89.167179,13.730696,0 -89.16725,13.730765,0 -89.16725,13.731665,0 -89.167322,13.731735,0 -89.167322,13.732358,0 -89.16725,13.732427,0 -89.16725,13.732773,0 -89.167179,13.732843,0 -89.167179,13.733466,0 -89.16725,13.733535,0 -89.167393,13.73402,0 -89.167286,13.734124,0 -89.167073,13.734193,0 -89.166895,13.73402,0 -89.166895,13.733881,0 -89.166717,13.733777,0 -89.16629,13.733985,0 -89.165862,13.733985,0 -89.165791,13.734054,0 -89.165649,13.734054,0 -89.165542,13.73395,0 -89.165471,13.733673,0 -89.165364,13.733639,0 -89.165293,13.733708,0 -89.16508,13.733708,0 -89.164439,13.734124,0 -89.164297,13.734124,0 -89.164225,13.734193,0 -89.163798,13.734193,0 -89.163514,13.734331,0 -89.162909,13.733812,0 -89.162588,13.733431,0 -89.162161,13.733293,0 -89.16177,13.732843,0 -89.161698,13.732704,0 -89.161698,13.732289,0 -89.16177,13.73215,0 -89.161592,13.731908,0 -89.161449,13.731908,0 -89.161343,13.731804,0 -89.161343,13.730835,0 -89.161521,13.730661,0 -89.161805,13.731008,0 -89.16209,13.731008,0 -89.162517,13.731285,0 -89.162731,13.731285,0 -89.163086,13.731423,0 -89.163371,13.731077,0 -89.164332,13.731042,0 -89.16419,13.730696,0 -89.16419,13.730488,0 -89.163869,13.730385,0 -89.163763,13.730281,0 -89.163763,13.729865,0 -89.163869,13.729761,0 -89.164154,13.729761,0 -89.164546,13.72945,0 -89.165044,13.72848,0 -89.165044,13.728134,0 -89.1654,13.727719,0 -89.165115,13.727303,0 -89.165044,13.726957,0 -89.16483,13.726749,0 -89.16483,13.726611,0 -89.164546,13.726126,0 -89.164546,13.725988,0 -89.16419,13.725295,0 -89.16419,13.725018,0 -89.164332,13.724741,0 -89.164261,13.724672,0 -89.164261,13.724395,0 -89.164047,13.724187,0 -89.164047,13.723703,0 -89.164119,13.723634,0 -89.164119,13.722387,0 -89.164047,13.722318,0 -89.164047,13.721972,0 -89.163905,13.721764,0 -89.163905,13.721072,0 -89.164047,13.720864,0 -89.164047,13.720725,0 -89.164154,13.720622,0 -89.164439,13.72076,0 -89.165293,13.72076,0 -89.165507,13.720483,0</coordinates></LinearRing></outerBoundaryIs></Polygon></MultiGeometry></Placemark><Placemark><name>Zona 8</name><styleUrl>#z</styleUrl><MultiGeometry><Polygon><outerBoundaryIs><LinearRing><coordinates>-89.174689,13.724291,0 -89.174902,13.724361,0 -89.175009,13.724464,0 -89.175009,13.724741,0 -89.174938,13.724811,0 -89.174938,13.72668,0 -89.175151,13.726957,0 -89.175009,13.727096,0 -89.174902,13.727407,0 -89.17476,13.727546,0 -89.174618,13.727546,0 -89.17444,13.72765,0 -89.174368,13.727788,0 -89.174368,13.728134,0 -89.174084,13.728342,0 -89.174084,13.728619,0 -89.174653,13.729104,0 -89.174653,13.729311,0 -89.174368,13.729519,0 -89.174297,13.730281,0 -89.174689,13.730661,0 -89.175187,13.730731,0 -89.175614,13.731285,0 -89.176184,13.731631,0 -89.176468,13.7317,0 -89.176931,13.73215,0 -89.176789,13.732427,0 -89.176789,13.732704,0 -89.176646,13.73305,0 -89.176646,13.733258,0 -89.176575,13.733327,0 -89.176504,13.734089,0 -89.176433,13.734158,0 -89.176575,13.735681,0 -89.177144,13.736374,0 -89.177144,13.736443,0 -89.177429,13.73672,0 -89.177785,13.737412,0 -89.178141,13.737897,0 -89.17807,13.738036,0 -89.177394,13.738693,0 -89.176895,13.738693,0 -89.176824,13.738624,0 -89.176753,13.738693,0 -89.17597,13.738693,0 -89.175899,13.738763,0 -89.175472,13.738763,0 -89.175258,13.738901,0 -89.175045,13.738901,0 -89.174262,13.739386,0 -89.173977,13.739732,0 -89.173479,13.73994,0 -89.173265,13.740217,0 -89.173123,13.740217,0 -89.173052,13.740286,0 -89.172696,13.740286,0 -89.172518,13.740113,0 -89.172518,13.739836,0 -89.172731,13.73949,0 -89.172731,13.739143,0 -89.172874,13.738936,0 -89.172874,13.73859,0 -89.172731,13.738382,0 -89.172731,13.737897,0 -89.172874,13.737689,0 -89.172945,13.737274,0 -89.173016,13.737205,0 -89.172874,13.736928,0 -89.172874,13.736305,0 -89.172945,13.736235,0 -89.172874,13.735681,0 -89.173016,13.735404,0 -89.173016,13.735128,0 -89.172838,13.734885,0 -89.172625,13.734816,0 -89.172269,13.73447,0 -89.171913,13.734262,0 -89.17177,13.734262,0 -89.171664,13.734158,0 -89.171664,13.733881,0 -89.171735,13.733812,0 -89.171699,13.733293,0 -89.171486,13.733293,0 -89.171308,13.733466,0 -89.171237,13.733673,0 -89.17113,13.733777,0 -89.171059,13.733708,0 -89.170845,13.733708,0 -89.170276,13.733362,0 -89.170098,13.733189,0 -89.170098,13.732843,0 -89.169849,13.732462,0 -89.169635,13.732462,0 -89.169493,13.7326,0 -89.16871,13.732669,0 -89.168389,13.73312,0 -89.168318,13.733327,0 -89.167962,13.733604,0 -89.167678,13.734089,0 -89.1675,13.734262,0 -89.167393,13.734158,0 -89.167393,13.73395,0 -89.167179,13.733466,0 -89.167179,13.732843,0 -89.16725,13.732773,0 -89.16725,13.732427,0 -89.167322,13.732358,0 -89.167322,13.731735,0 -89.16725,13.731665,0 -89.16725,13.730765,0 -89.167179,13.730696,0 -89.167179,13.730488,0 -89.167108,13.73035,0 -89.166895,13.730073,0 -89.166895,13.728896,0 -89.166966,13.728827,0 -89.166966,13.728342,0 -89.167037,13.728273,0 -89.167037,13.727926,0 -89.167108,13.727857,0 -89.167108,13.72758,0 -89.16725,13.727234,0 -89.16725,13.727026,0 -89.167322,13.726957,0 -89.167322,13.726819,0 -89.167464,13.72668,0 -89.167535,13.726472,0 -89.16782,13.726057,0 -89.167891,13.725642,0 -89.167962,13.725572,0 -89.167962,13.725434,0 -89.168069,13.72533,0 -89.168283,13.725399,0 -89.168354,13.72533,0 -89.16871,13.72533,0 -89.168781,13.725261,0 -89.168852,13.72533,0 -89.169066,13.72533,0 -89.169137,13.725261,0 -89.170347,13.725261,0 -89.170667,13.725642,0 -89.170667,13.726334,0 -89.170952,13.726611,0 -89.170952,13.72668,0 -89.171699,13.727407,0 -89.172055,13.727615,0 -89.172269,13.727823,0 -89.172482,13.727823,0 -89.173158,13.727234,0 -89.173158,13.726611,0 -89.17323,13.726542,0 -89.17323,13.726403,0 -89.173443,13.726126,0 -89.173301,13.725642,0 -89.173728,13.724811,0 -89.173906,13.724638,0 -89.174119,13.724638,0 -89.174689,13.724291,0</coordinates></LinearRing></outerBoundaryIs></Polygon></MultiGeometry></Placemark><Placemark><name>Zona 9</name><styleUrl>#z</styleUrl><MultiGeometry><Polygon><outerBoundaryIs><LinearRing><coordinates>-89.16935,13.76549,0 -89.169813,13.766078,0 -89.169813,13.766217,0 -89.169884,13.766286,0 -89.169884,13.766701,0 -89.169813,13.76677,0 -89.169813,13.766909,0 -89.169386,13.767463,0 -89.169386,13.767878,0 -89.169457,13.767948,0 -89.169457,13.768155,0 -89.169742,13.768432,0 -89.169742,13.768501,0 -89.170026,13.768709,0 -89.170026,13.768848,0 -89.170169,13.768986,0 -89.170382,13.769402,0 -89.170311,13.769471,0 -89.170311,13.769609,0 -89.169813,13.770094,0 -89.169884,13.770509,0 -89.170133,13.770752,0 -89.170347,13.770821,0 -89.170454,13.770925,0 -89.170382,13.771894,0 -89.17024,13.77224,0 -89.169884,13.772725,0 -89.169884,13.772864,0 -89.169813,13.772933,0 -89.169813,13.77321,0 -89.169955,13.773487,0 -89.170204,13.77366,0 -89.170632,13.773729,0 -89.170703,13.773798,0 -89.170916,13.773798,0 -89.171414,13.774006,0 -89.171913,13.774075,0 -89.172233,13.774318,0 -89.172304,13.774664,0 -89.17266,13.775149,0 -89.172874,13.775772,0 -89.173585,13.776395,0 -89.173585,13.776533,0 -89.173728,13.776741,0 -89.17387,13.777226,0 -89.174582,13.778126,0 -89.174724,13.77868,0 -89.175151,13.779303,0 -89.175365,13.780411,0 -89.175579,13.780826,0 -89.175579,13.781172,0 -89.175472,13.781276,0 -89.174831,13.781346,0 -89.174475,13.781623,0 -89.174262,13.781623,0 -89.173977,13.781415,0 -89.173692,13.781415,0 -89.17355,13.781484,0 -89.173087,13.781934,0 -89.173087,13.782003,0 -89.172803,13.78228,0 -89.172731,13.782488,0 -89.172553,13.782661,0 -89.172375,13.782488,0 -89.172304,13.782211,0 -89.171486,13.780584,0 -89.171308,13.780688,0 -89.171308,13.781103,0 -89.171237,13.781172,0 -89.171237,13.781311,0 -89.170987,13.781553,0 -89.17056,13.78183,0 -89.170276,13.78183,0 -89.170169,13.781726,0 -89.170169,13.781103,0 -89.17024,13.781034,0 -89.17024,13.780688,0 -89.169955,13.780203,0 -89.169599,13.779788,0 -89.169599,13.77958,0 -89.169528,13.779511,0 -89.169528,13.778818,0 -89.169457,13.778749,0 -89.169457,13.778057,0 -89.168816,13.777434,0 -89.168816,13.777295,0 -89.169101,13.777018,0 -89.169066,13.776776,0 -89.168923,13.776706,0 -89.168283,13.776706,0 -89.167927,13.776499,0 -89.167784,13.776499,0 -89.167357,13.776153,0 -89.167215,13.776083,0 -89.167001,13.776083,0 -89.166681,13.776603,0 -89.166432,13.776845,0 -89.16629,13.776845,0 -89.165542,13.776256,0 -89.164688,13.775287,0 -89.164617,13.773764,0 -89.164688,13.773695,0 -89.164688,13.773556,0 -89.16483,13.773418,0 -89.16483,13.773141,0 -89.164688,13.772864,0 -89.164688,13.772725,0 -89.164866,13.772552,0 -89.165435,13.772552,0 -89.165578,13.772483,0 -89.165827,13.77224,0 -89.165898,13.771963,0 -89.165222,13.771236,0 -89.164083,13.771236,0 -89.163976,13.771133,0 -89.163976,13.770509,0 -89.163905,13.77044,0 -89.163905,13.770025,0 -89.163834,13.769956,0 -89.163834,13.769263,0 -89.163941,13.769159,0 -89.164154,13.76909,0 -89.164332,13.768848,0 -89.164332,13.768709,0 -89.16419,13.768571,0 -89.164119,13.768294,0 -89.164546,13.767809,0 -89.164546,13.76774,0 -89.165293,13.767013,0 -89.166005,13.766805,0 -89.166218,13.766667,0 -89.166574,13.766597,0 -89.166788,13.766459,0 -89.16693,13.766459,0 -89.167428,13.766182,0 -89.168852,13.765836,0 -89.16935,13.76549,0</coordinates></LinearRing></outerBoundaryIs></Polygon></MultiGeometry></Placemark><Placemark><name>Zona 10</name><styleUrl>#z</styleUrl><MultiGeometry><Polygon><outerBoundaryIs><LinearRing><coordinates>-89.153762,13.725261,0 -89.154616,13.725815,0 -89.155008,13.726334,0 -89.155008,13.726472,0 -89.15515,13.72668,0 -89.15515,13.726957,0 -89.155221,13.727096,0 -89.15515,13.727165,0 -89.15515,13.727442,0 -89.155079,13.72758,0 -89.154723,13.727926,0 -89.154723,13.727996,0 -89.155079,13.728203,0 -89.155292,13.728619,0 -89.155363,13.729034,0 -89.155435,13.729104,0 -89.155435,13.729311,0 -89.155506,13.729381,0 -89.155506,13.729588,0 -89.155577,13.729658,0 -89.155577,13.729796,0 -89.155684,13.7299,0 -89.15725,13.7299,0 -89.157321,13.729831,0 -89.157748,13.729761,0 -89.157962,13.729623,0 -89.158246,13.729623,0 -89.158353,13.729727,0 -89.158994,13.731042,0 -89.159243,13.731215,0 -89.159599,13.731215,0 -89.15967,13.731146,0 -89.160168,13.731077,0 -89.160239,13.731008,0 -89.160453,13.731008,0 -89.160738,13.730869,0 -89.161236,13.7308,0 -89.161343,13.730904,0 -89.161343,13.731804,0 -89.161449,13.731908,0 -89.161592,13.731908,0 -89.16177,13.73215,0 -89.161698,13.732289,0 -89.161698,13.732704,0 -89.16177,13.732843,0 -89.162161,13.733293,0 -89.162588,13.733431,0 -89.162909,13.733812,0 -89.163549,13.734366,0 -89.163549,13.734712,0 -89.163478,13.734851,0 -89.162695,13.735404,0 -89.16241,13.73582,0 -89.162197,13.736374,0 -89.161485,13.737412,0 -89.161485,13.737551,0 -89.161414,13.73762,0 -89.161414,13.737897,0 -89.161485,13.737966,0 -89.161556,13.738382,0 -89.16177,13.738659,0 -89.16177,13.738866,0 -89.161698,13.738936,0 -89.161556,13.73949,0 -89.161414,13.739628,0 -89.1612,13.740113,0 -89.160987,13.74039,0 -89.160773,13.741636,0 -89.160666,13.74174,0 -89.16031,13.74174,0 -89.160239,13.741809,0 -89.159955,13.741809,0 -89.159883,13.741878,0 -89.159812,13.741809,0 -89.159456,13.741809,0 -89.159385,13.74174,0 -89.1591,13.74174,0 -89.159029,13.741671,0 -89.158816,13.74174,0 -89.158745,13.741671,0 -89.157463,13.741671,0 -89.157392,13.741602,0 -89.156823,13.741602,0 -89.156574,13.741913,0 -89.156467,13.741948,0 -89.156111,13.742294,0 -89.155684,13.741809,0 -89.15547,13.741809,0 -89.155399,13.74174,0 -89.153762,13.74174,0 -89.153691,13.741809,0 -89.153264,13.741809,0 -89.153192,13.741878,0 -89.153121,13.741809,0 -89.152908,13.741809,0 -89.152694,13.741948,0 -89.152481,13.741948,0 -89.15241,13.742017,0 -89.151271,13.742017,0 -89.150844,13.742225,0 -89.150488,13.742294,0 -89.150274,13.742432,0 -89.149847,13.742432,0 -89.149562,13.742294,0 -89.149206,13.742294,0 -89.149135,13.742225,0 -89.148566,13.742225,0 -89.146929,13.743056,0 -89.146644,13.743056,0 -89.146573,13.742986,0 -89.146359,13.742986,0 -89.146075,13.742848,0 -89.145861,13.742848,0 -89.145754,13.742744,0 -89.145754,13.742536,0 -89.145541,13.742329,0 -89.145541,13.742121,0 -89.145754,13.741775,0 -89.145754,13.741082,0 -89.145612,13.740736,0 -89.145363,13.740424,0 -89.144864,13.740286,0 -89.144615,13.740113,0 -89.144687,13.739697,0 -89.144509,13.739524,0 -89.144437,13.739524,0 -89.144259,13.739282,0 -89.144259,13.738936,0 -89.144188,13.738866,0 -89.144188,13.738451,0 -89.144117,13.738313,0 -89.14401,13.738209,0 -89.143085,13.738209,0 -89.142978,13.738105,0 -89.143227,13.737863,0 -89.143797,13.737724,0 -89.143904,13.737551,0 -89.143904,13.737412,0 -89.144188,13.737135,0 -89.144188,13.736859,0 -89.144046,13.736512,0 -89.144117,13.735889,0 -89.144259,13.735612,0 -89.144259,13.735474,0 -89.144402,13.735266,0 -89.144473,13.734643,0 -89.144615,13.734504,0 -89.144758,13.734158,0 -89.144829,13.733604,0 -89.144971,13.733327,0 -89.144971,13.73312,0 -89.145185,13.732635,0 -89.145327,13.732081,0 -89.145576,13.731908,0 -89.14579,13.731908,0 -89.146288,13.731631,0 -89.146502,13.731631,0 -89.14668,13.731389,0 -89.14668,13.730904,0 -89.146608,13.730835,0 -89.146608,13.730696,0 -89.14668,13.730627,0 -89.14668,13.730419,0 -89.146608,13.73035,0 -89.146608,13.729796,0 -89.146395,13.729658,0 -89.146466,13.729519,0 -89.146466,13.728965,0 -89.146644,13.728792,0 -89.147213,13.728792,0 -89.147285,13.728723,0 -89.147569,13.728723,0 -89.14789,13.728273,0 -89.147961,13.728065,0 -89.148423,13.727615,0 -89.148779,13.727407,0 -89.148993,13.727199,0 -89.15241,13.726576,0 -89.153762,13.725261,0</coordinates></LinearRing></outerBoundaryIs></Polygon></MultiGeometry></Placemark><Placemark><name>Zona 11</name><styleUrl>#z</styleUrl><MultiGeometry><Polygon><outerBoundaryIs><LinearRing><coordinates>-89.156823,13.741602,0 -89.157392,13.741602,0 -89.157463,13.741671,0 -89.158745,13.741671,0 -89.158816,13.74174,0 -89.159029,13.741671,0 -89.1591,13.74174,0 -89.159385,13.74174,0 -89.159456,13.741809,0 -89.159812,13.741809,0 -89.159883,13.741878,0 -89.159955,13.741809,0 -89.160239,13.741809,0 -89.16031,13.74174,0 -89.160595,13.74174,0 -89.160702,13.741844,0 -89.160702,13.742052,0 -89.160631,13.742121,0 -89.160631,13.742813,0 -89.160809,13.743056,0 -89.160951,13.743056,0 -89.161165,13.742779,0 -89.16209,13.742848,0 -89.163691,13.744198,0 -89.163691,13.744613,0 -89.16362,13.744683,0 -89.16362,13.745721,0 -89.164119,13.746621,0 -89.16419,13.747037,0 -89.164261,13.747106,0 -89.164261,13.747245,0 -89.164332,13.747314,0 -89.164474,13.747799,0 -89.164652,13.747972,0 -89.164866,13.747972,0 -89.164937,13.748041,0 -89.16508,13.748041,0 -89.165151,13.747972,0 -89.166147,13.747972,0 -89.16629,13.748041,0 -89.166468,13.748283,0 -89.166396,13.748699,0 -89.166325,13.748768,0 -89.166325,13.749045,0 -89.166183,13.749253,0 -89.166183,13.74953,0 -89.16604,13.749807,0 -89.16604,13.750707,0 -89.166112,13.750776,0 -89.166112,13.751053,0 -89.165934,13.751226,0 -89.165862,13.751226,0 -89.16572,13.751087,0 -89.165008,13.750741,0 -89.164581,13.750672,0 -89.163869,13.750395,0 -89.162731,13.750464,0 -89.162446,13.750326,0 -89.162019,13.750257,0 -89.161521,13.750049,0 -89.161307,13.750049,0 -89.160595,13.749772,0 -89.160097,13.749772,0 -89.160026,13.749841,0 -89.158602,13.749841,0 -89.158531,13.74991,0 -89.158033,13.74998,0 -89.157784,13.750153,0 -89.157997,13.750637,0 -89.158139,13.750776,0 -89.158139,13.751261,0 -89.158068,13.75133,0 -89.158068,13.751676,0 -89.157997,13.751814,0 -89.158353,13.752645,0 -89.158353,13.753338,0 -89.158282,13.753407,0 -89.158282,13.753615,0 -89.158139,13.753892,0 -89.158139,13.754099,0 -89.158068,13.754169,0 -89.158068,13.754653,0 -89.157997,13.754723,0 -89.157926,13.755623,0 -89.157855,13.755692,0 -89.157784,13.756177,0 -89.157712,13.756246,0 -89.157712,13.756454,0 -89.15757,13.756731,0 -89.157499,13.757284,0 -89.157357,13.757561,0 -89.157357,13.757838,0 -89.157285,13.757908,0 -89.157285,13.760193,0 -89.157214,13.760262,0 -89.157285,13.760677,0 -89.156751,13.761335,0 -89.155897,13.761751,0 -89.155613,13.761751,0 -89.155541,13.76182,0 -89.155257,13.76182,0 -89.155186,13.761889,0 -89.154545,13.761958,0 -89.154474,13.762027,0 -89.154189,13.762027,0 -89.153798,13.762339,0 -89.153477,13.76272,0 -89.153335,13.76272,0 -89.153264,13.762651,0 -89.152908,13.762651,0 -89.152765,13.762512,0 -89.152623,13.762512,0 -89.152303,13.763447,0 -89.151662,13.764139,0 -89.151662,13.764209,0 -89.151093,13.764832,0 -89.151093,13.764901,0 -89.150416,13.765559,0 -89.149918,13.765836,0 -89.14974,13.766009,0 -89.149313,13.766909,0 -89.149206,13.767013,0 -89.148281,13.767082,0 -89.147925,13.766944,0 -89.147569,13.766944,0 -89.147285,13.766805,0 -89.147071,13.766805,0 -89.147,13.766736,0 -89.14643,13.766736,0 -89.146075,13.766528,0 -89.145897,13.766563,0 -89.145897,13.766701,0 -89.147107,13.767809,0 -89.147249,13.768086,0 -89.14732,13.768432,0 -89.147676,13.769125,0 -89.148032,13.76954,0 -89.148032,13.769609,0 -89.148673,13.770094,0 -89.148744,13.770232,0 -89.148744,13.770786,0 -89.148815,13.770856,0 -89.148815,13.770994,0 -89.149028,13.771271,0 -89.149028,13.77141,0 -89.14974,13.772794,0 -89.150061,13.773106,0 -89.150559,13.773314,0 -89.150737,13.773487,0 -89.150879,13.774248,0 -89.151271,13.774491,0 -89.151662,13.774941,0 -89.151662,13.775149,0 -89.151591,13.775218,0 -89.151591,13.775702,0 -89.151164,13.776741,0 -89.151164,13.777087,0 -89.151093,13.777157,0 -89.151022,13.777572,0 -89.150879,13.77778,0 -89.150879,13.778057,0 -89.150772,13.778161,0 -89.150488,13.778161,0 -89.150416,13.778091,0 -89.149634,13.778091,0 -89.149562,13.778022,0 -89.14821,13.778022,0 -89.148139,13.778091,0 -89.147427,13.778091,0 -89.14732,13.778195,0 -89.147391,13.779026,0 -89.146644,13.779822,0 -89.146359,13.779961,0 -89.145932,13.780307,0 -89.145719,13.780307,0 -89.145434,13.780099,0 -89.145078,13.780099,0 -89.145007,13.780169,0 -89.144509,13.780238,0 -89.144331,13.780065,0 -89.144259,13.779649,0 -89.144188,13.77958,0 -89.144188,13.779372,0 -89.144117,13.779303,0 -89.144117,13.778818,0 -89.144188,13.778749,0 -89.144188,13.778541,0 -89.144259,13.778403,0 -89.144473,13.778195,0 -89.144473,13.778057,0 -89.144224,13.778022,0 -89.1428,13.778714,0 -89.142551,13.778957,0 -89.14248,13.779165,0 -89.142338,13.779303,0 -89.142195,13.779788,0 -89.141946,13.780169,0 -89.141697,13.779788,0 -89.141555,13.779234,0 -89.141412,13.779026,0 -89.141341,13.77868,0 -89.141199,13.778472,0 -89.141128,13.778126,0 -89.141056,13.778057,0 -89.141056,13.775633,0 -89.141128,13.775564,0 -89.141128,13.775218,0 -89.141199,13.775149,0 -89.141199,13.774179,0 -89.141128,13.77411,0 -89.141128,13.773625,0 -89.141056,13.773556,0 -89.141056,13.773348,0 -89.140843,13.773002,0 -89.140843,13.772794,0 -89.140772,13.772725,0 -89.140772,13.772102,0 -89.1407,13.772033,0 -89.140629,13.771548,0 -89.140487,13.771202,0 -89.140487,13.770786,0 -89.140558,13.770717,0 -89.140558,13.77044,0 -89.140629,13.770371,0 -89.140629,13.769817,0 -89.140345,13.769332,0 -89.140273,13.768778,0 -89.140131,13.768501,0 -89.140131,13.768294,0 -89.139917,13.767878,0 -89.138779,13.76684,0 -89.138707,13.766632,0 -89.138529,13.766459,0 -89.138316,13.76639,0 -89.138067,13.766078,0 -89.138138,13.765801,0 -89.137853,13.765455,0 -89.137924,13.765109,0 -89.137996,13.765039,0 -89.137996,13.764624,0 -89.137782,13.764347,0 -89.137782,13.764209,0 -89.137711,13.764139,0 -89.137711,13.764001,0 -89.137782,13.763932,0 -89.137782,13.763724,0 -89.137711,13.763655,0 -89.137889,13.763482,0 -89.138601,13.763482,0 -89.13885,13.763308,0 -89.139063,13.762893,0 -89.139063,13.762616,0 -89.139134,13.762547,0 -89.139134,13.762408,0 -89.139277,13.762201,0 -89.139277,13.762062,0 -89.139134,13.761924,0 -89.139134,13.761647,0 -89.139063,13.761577,0 -89.138992,13.759916,0 -89.138921,13.759846,0 -89.138921,13.759569,0 -89.138636,13.758877,0 -89.138636,13.758254,0 -89.138743,13.75815,0 -89.139312,13.75815,0 -89.139419,13.757977,0 -89.139419,13.757561,0 -89.139312,13.757458,0 -89.13917,13.757388,0 -89.138743,13.757388,0 -89.138636,13.757284,0 -89.138707,13.756869,0 -89.13885,13.756592,0 -89.13885,13.755692,0 -89.138921,13.755623,0 -89.138921,13.754307,0 -89.13885,13.754238,0 -89.13885,13.753684,0 -89.138921,13.753615,0 -89.138921,13.752438,0 -89.13885,13.752368,0 -89.13885,13.751468,0 -89.138779,13.751399,0 -89.138779,13.750914,0 -89.13885,13.750845,0 -89.13885,13.750291,0 -89.138921,13.750222,0 -89.138992,13.749807,0 -89.139063,13.749737,0 -89.139063,13.748837,0 -89.138921,13.748491,0 -89.138921,13.748214,0 -89.138814,13.74811,0 -89.138316,13.747902,0 -89.138174,13.747902,0 -89.13796,13.747764,0 -89.137818,13.747764,0 -89.13764,13.747591,0 -89.138031,13.74721,0 -89.138102,13.74721,0 -89.138458,13.746864,0 -89.138529,13.746864,0 -89.13885,13.746483,0 -89.138779,13.746414,0 -89.138779,13.745652,0 -89.138707,13.745583,0 -89.138707,13.74489,0 -89.138636,13.744821,0 -89.138636,13.744198,0 -89.138565,13.744129,0 -89.138565,13.743852,0 -89.138672,13.743748,0 -89.138743,13.743817,0 -89.138957,13.743817,0 -89.139455,13.744025,0 -89.140309,13.744025,0 -89.14038,13.744094,0 -89.14159,13.744094,0 -89.141661,13.744025,0 -89.14401,13.744025,0 -89.144081,13.743956,0 -89.144224,13.743956,0 -89.14458,13.74354,0 -89.144651,13.74354,0 -89.144936,13.743263,0 -89.145505,13.742986,0 -89.145719,13.742779,0 -89.146288,13.742917,0 -89.146359,13.742986,0 -89.146573,13.742986,0 -89.146644,13.743056,0 -89.146929,13.743056,0 -89.148566,13.742225,0 -89.149135,13.742225,0 -89.149206,13.742294,0 -89.149562,13.742294,0 -89.149847,13.742432,0 -89.150274,13.742432,0 -89.150488,13.742294,0 -89.150844,13.742225,0 -89.151271,13.742017,0 -89.15241,13.742017,0 -89.152481,13.741948,0 -89.152694,13.741948,0 -89.152908,13.741809,0 -89.153121,13.741809,0 -89.153192,13.741878,0 -89.153264,13.741809,0 -89.153691,13.741809,0 -89.153762,13.74174,0 -89.155399,13.74174,0 -89.15547,13.741809,0 -89.155684,13.741809,0 -89.156111,13.742294,0 -89.156467,13.741948,0 -89.156574,13.741913,0 -89.156823,13.741602,0</coordinates></LinearRing></outerBoundaryIs></Polygon></MultiGeometry></Placemark><Placemark><name>Zona 12</name><styleUrl>#z</styleUrl><MultiGeometry><Polygon><outerBoundaryIs><LinearRing><coordinates>-89.176184,13.708435,0 -89.176361,13.708678,0 -89.17629,13.708747,0 -89.17629,13.708885,0 -89.175828,13.709266,0 -89.175258,13.709543,0 -89.174902,13.709889,0 -89.17476,13.709889,0 -89.174511,13.710132,0 -89.174511,13.710547,0 -89.174582,13.710616,0 -89.174582,13.710824,0 -89.174511,13.710893,0 -89.174511,13.711101,0 -89.174368,13.711309,0 -89.174297,13.711863,0 -89.174368,13.711932,0 -89.174368,13.71207,0 -89.174653,13.712347,0 -89.174724,13.712624,0 -89.174368,13.712832,0 -89.174368,13.713317,0 -89.17444,13.713386,0 -89.17444,13.713663,0 -89.174297,13.713801,0 -89.174297,13.714078,0 -89.174582,13.714425,0 -89.174582,13.714771,0 -89.174511,13.71484,0 -89.174511,13.714978,0 -89.174582,13.715048,0 -89.174582,13.715532,0 -89.174368,13.715671,0 -89.174297,13.715809,0 -89.174297,13.716017,0 -89.174191,13.716121,0 -89.174048,13.716121,0 -89.173763,13.716259,0 -89.173123,13.716259,0 -89.173052,13.716329,0 -89.172767,13.716329,0 -89.172696,13.716398,0 -89.172553,13.716398,0 -89.17234,13.71619,0 -89.17177,13.716052,0 -89.171664,13.716156,0 -89.171592,13.716363,0 -89.171414,13.716536,0 -89.171343,13.716467,0 -89.170845,13.716467,0 -89.170774,13.716398,0 -89.170204,13.716398,0 -89.170098,13.716294,0 -89.170098,13.716156,0 -89.170169,13.716086,0 -89.170169,13.715809,0 -89.17024,13.71574,0 -89.17024,13.715463,0 -89.170382,13.715117,0 -89.170382,13.71484,0 -89.170525,13.714494,0 -89.170525,13.714286,0 -89.170667,13.714009,0 -89.170667,13.713524,0 -89.170738,13.713455,0 -89.170738,13.713247,0 -89.171094,13.712555,0 -89.171664,13.711724,0 -89.172162,13.710755,0 -89.172162,13.710616,0 -89.172304,13.710409,0 -89.172375,13.710062,0 -89.17266,13.709578,0 -89.17266,13.709439,0 -89.172874,13.709024,0 -89.173052,13.708851,0 -89.173621,13.708851,0 -89.173692,13.70892,0 -89.174404,13.70892,0 -89.174475,13.708851,0 -89.174831,13.708851,0 -89.174902,13.708781,0 -89.175116,13.708781,0 -89.175401,13.708643,0 -89.175828,13.708574,0 -89.175899,13.708505,0 -89.176112,13.708505,0 -89.176184,13.708435,0</coordinates></LinearRing></outerBoundaryIs></Polygon></MultiGeometry></Placemark><Placemark><name>Zona 13</name><styleUrl>#z</styleUrl><MultiGeometry><Polygon><outerBoundaryIs><LinearRing><coordinates>-89.144224,13.778022,0 -89.144366,13.778022,0 -89.144473,13.778126,0 -89.144188,13.778541,0 -89.144188,13.778749,0 -89.144117,13.778818,0 -89.144117,13.779303,0 -89.144188,13.779372,0 -89.144188,13.77958,0 -89.144259,13.779649,0 -89.144259,13.779857,0 -89.144402,13.780203,0 -89.144651,13.780238,0 -89.144722,13.780169,0 -89.145007,13.780169,0 -89.145078,13.780099,0 -89.145434,13.780099,0 -89.145719,13.780307,0 -89.145932,13.780307,0 -89.146359,13.779961,0 -89.146644,13.779822,0 -89.147391,13.779026,0 -89.14732,13.778195,0 -89.147427,13.778091,0 -89.148139,13.778091,0 -89.14821,13.778022,0 -89.149562,13.778022,0 -89.149634,13.778091,0 -89.150416,13.778091,0 -89.150488,13.778161,0 -89.150844,13.778161,0 -89.150986,13.77823,0 -89.151306,13.778541,0 -89.151164,13.779026,0 -89.151093,13.779095,0 -89.151093,13.779303,0 -89.151342,13.779476,0 -89.15184,13.779407,0 -89.152587,13.780272,0 -89.153015,13.780896,0 -89.153406,13.781138,0 -89.153548,13.781138,0 -89.153726,13.781311,0 -89.153798,13.781726,0 -89.153975,13.7819,0 -89.15426,13.7819,0 -89.154367,13.782003,0 -89.154367,13.782557,0 -89.15458,13.782973,0 -89.154509,13.783596,0 -89.155114,13.783631,0 -89.155186,13.783561,0 -89.155399,13.783561,0 -89.155755,13.783423,0 -89.156787,13.784565,0 -89.157357,13.785604,0 -89.157357,13.785742,0 -89.157534,13.785915,0 -89.157677,13.785915,0 -89.158531,13.786331,0 -89.159029,13.786331,0 -89.1591,13.786262,0 -89.159527,13.786262,0 -89.159599,13.786192,0 -89.160097,13.786192,0 -89.160239,13.786123,0 -89.16031,13.786192,0 -89.161022,13.786192,0 -89.161093,13.786262,0 -89.161948,13.786262,0 -89.162019,13.786331,0 -89.162588,13.7864,0 -89.162659,13.786469,0 -89.162802,13.786469,0 -89.162873,13.7864,0 -89.1633,13.7864,0 -89.163371,13.786331,0 -89.163656,13.786331,0 -89.164012,13.786192,0 -89.164297,13.786192,0 -89.164368,13.786123,0 -89.164937,13.786054,0 -89.166147,13.785015,0 -89.16629,13.785015,0 -89.166503,13.785292,0 -89.167001,13.7855,0 -89.16725,13.785742,0 -89.167322,13.786019,0 -89.166966,13.786712,0 -89.166752,13.786989,0 -89.166752,13.787266,0 -89.166681,13.787335,0 -89.166681,13.787612,0 -89.166966,13.788027,0 -89.166966,13.788304,0 -89.167037,13.788374,0 -89.167037,13.788789,0 -89.166966,13.788858,0 -89.167037,13.791143,0 -89.16725,13.79142,0 -89.16508,13.793324,0 -89.165008,13.793324,0 -89.164795,13.793532,0 -89.164581,13.793601,0 -89.164403,13.793774,0 -89.164332,13.793982,0 -89.16419,13.79412,0 -89.164119,13.794328,0 -89.163834,13.794744,0 -89.163834,13.795021,0 -89.163763,13.79509,0 -89.163763,13.795228,0 -89.163478,13.795782,0 -89.163051,13.796405,0 -89.162802,13.796648,0 -89.162731,13.796648,0 -89.162375,13.796994,0 -89.162303,13.796994,0 -89.161876,13.797409,0 -89.161805,13.797409,0 -89.161271,13.797929,0 -89.161129,13.798136,0 -89.161129,13.798483,0 -89.1612,13.798552,0 -89.1612,13.79869,0 -89.161093,13.798794,0 -89.160809,13.798933,0 -89.160666,13.798933,0 -89.160453,13.799071,0 -89.160239,13.799071,0 -89.159029,13.798033,0 -89.158033,13.797548,0 -89.157321,13.797063,0 -89.15668,13.796786,0 -89.155399,13.796786,0 -89.154901,13.796994,0 -89.153975,13.796925,0 -89.153904,13.796855,0 -89.153121,13.796855,0 -89.152908,13.796717,0 -89.152765,13.796717,0 -89.152623,13.796579,0 -89.152196,13.796371,0 -89.152054,13.796371,0 -89.15184,13.796232,0 -89.151698,13.796232,0 -89.151413,13.796094,0 -89.150772,13.79554,0 -89.149918,13.795124,0 -89.148779,13.795124,0 -89.148495,13.795263,0 -89.148139,13.795332,0 -89.147712,13.795609,0 -89.147213,13.795748,0 -89.147142,13.795817,0 -89.146644,13.795817,0 -89.14611,13.795436,0 -89.146039,13.795021,0 -89.145968,13.794951,0 -89.145897,13.794605,0 -89.145825,13.794536,0 -89.145825,13.794328,0 -89.145683,13.794051,0 -89.145683,13.793567,0 -89.145612,13.793497,0 -89.145612,13.79329,0 -89.145469,13.793013,0 -89.145469,13.792805,0 -89.145327,13.792666,0 -89.145114,13.792251,0 -89.143619,13.790728,0 -89.143476,13.790451,0 -89.143476,13.790312,0 -89.143334,13.790105,0 -89.144046,13.789481,0 -89.144046,13.789066,0 -89.144117,13.788997,0 -89.144117,13.788304,0 -89.144758,13.78775,0 -89.144758,13.787404,0 -89.144473,13.786919,0 -89.144473,13.786781,0 -89.143975,13.785812,0 -89.143975,13.784842,0 -89.143904,13.784704,0 -89.143726,13.7846,0 -89.143299,13.7846,0 -89.143121,13.784427,0 -89.142836,13.784011,0 -89.142765,13.783804,0 -89.142622,13.783665,0 -89.142622,13.783527,0 -89.142907,13.78325,0 -89.142978,13.783042,0 -89.142836,13.782765,0 -89.142836,13.782627,0 -89.142693,13.782419,0 -89.142622,13.782073,0 -89.14248,13.781865,0 -89.142338,13.781311,0 -89.142195,13.781103,0 -89.142053,13.780549,0 -89.141911,13.780342,0 -89.142195,13.779788,0 -89.142338,13.779303,0 -89.14248,13.779165,0 -89.142551,13.778957,0 -89.1428,13.778714,0 -89.144224,13.778022,0</coordinates></LinearRing></outerBoundaryIs></Polygon></MultiGeometry></Placemark><Placemark><name>Zona 14</name><styleUrl>#z</styleUrl><MultiGeometry><Polygon><outerBoundaryIs><LinearRing><coordinates>-89.160097,13.749772,0 -89.160595,13.749772,0 -89.161307,13.750049,0 -89.161521,13.750049,0 -89.162019,13.750257,0 -89.162446,13.750326,0 -89.162731,13.750464,0 -89.163869,13.750395,0 -89.164581,13.750672,0 -89.165008,13.750741,0 -89.16572,13.751087,0 -89.165969,13.75133,0 -89.165969,13.751538,0 -89.16572,13.751918,0 -89.165507,13.751918,0 -89.165222,13.752126,0 -89.164866,13.752195,0 -89.164439,13.752472,0 -89.163941,13.75268,0 -89.163763,13.752853,0 -89.163691,13.75313,0 -89.163478,13.753407,0 -89.16298,13.754446,0 -89.16298,13.754653,0 -89.163051,13.754723,0 -89.163122,13.755069,0 -89.163264,13.755277,0 -89.163264,13.755415,0 -89.163691,13.756038,0 -89.163798,13.756142,0 -89.163941,13.756142,0 -89.164083,13.755934,0 -89.164225,13.755934,0 -89.164617,13.756454,0 -89.164617,13.756592,0 -89.164759,13.7568,0 -89.16483,13.757146,0 -89.165044,13.757561,0 -89.165044,13.757769,0 -89.165115,13.757838,0 -89.165115,13.758669,0 -89.164973,13.758946,0 -89.164795,13.759119,0 -89.164581,13.759258,0 -89.164083,13.759396,0 -89.163656,13.759743,0 -89.163229,13.75995,0 -89.162588,13.760019,0 -89.162339,13.759846,0 -89.162339,13.759708,0 -89.162161,13.759535,0 -89.161876,13.759396,0 -89.161592,13.759396,0 -89.161271,13.759708,0 -89.161271,13.759846,0 -89.161129,13.760123,0 -89.160773,13.760539,0 -89.160702,13.760816,0 -89.160915,13.7613,0 -89.160987,13.761647,0 -89.161414,13.762408,0 -89.161414,13.762685,0 -89.161485,13.762754,0 -89.161414,13.762893,0 -89.161485,13.762962,0 -89.161414,13.763724,0 -89.160275,13.764901,0 -89.160133,13.765178,0 -89.160133,13.765455,0 -89.160382,13.765766,0 -89.160595,13.765905,0 -89.160738,13.765974,0 -89.161022,13.765974,0 -89.161093,13.766043,0 -89.161307,13.766043,0 -89.162019,13.766736,0 -89.16209,13.766736,0 -89.162303,13.766944,0 -89.162659,13.767082,0 -89.163015,13.767082,0 -89.163264,13.76684,0 -89.163478,13.766493,0 -89.164012,13.765974,0 -89.164154,13.765974,0 -89.164439,13.766113,0 -89.165257,13.76684,0 -89.165329,13.766978,0 -89.16419,13.768155,0 -89.164119,13.768432,0 -89.164332,13.768709,0 -89.164332,13.768848,0 -89.164154,13.76909,0 -89.163941,13.769159,0 -89.163834,13.769263,0 -89.163834,13.769956,0 -89.163905,13.770025,0 -89.163905,13.77044,0 -89.163976,13.770509,0 -89.163976,13.771133,0 -89.164083,13.771236,0 -89.165222,13.771236,0 -89.165685,13.771756,0 -89.165685,13.771825,0 -89.165898,13.771963,0 -89.165827,13.77224,0 -89.165578,13.772483,0 -89.165435,13.772552,0 -89.164866,13.772552,0 -89.164688,13.772656,0 -89.164688,13.772864,0 -89.16483,13.773141,0 -89.16483,13.773418,0 -89.164688,13.773556,0 -89.164688,13.773695,0 -89.164617,13.773764,0 -89.164688,13.775287,0 -89.165186,13.775841,0 -89.165364,13.776153,0 -89.165435,13.776153,0 -89.16629,13.776845,0 -89.166432,13.776845,0 -89.166645,13.776637,0 -89.166823,13.776326,0 -89.167073,13.776083,0 -89.167357,13.776153,0 -89.167784,13.776499,0 -89.167927,13.776499,0 -89.168283,13.776706,0 -89.168923,13.776706,0 -89.16903,13.77681,0 -89.169101,13.77688,0 -89.169101,13.777018,0 -89.168816,13.777226,0 -89.168816,13.777434,0 -89.169457,13.778057,0 -89.169457,13.778749,0 -89.169528,13.778818,0 -89.169528,13.779511,0 -89.169599,13.77958,0 -89.169599,13.779788,0 -89.169671,13.779857,0 -89.169671,13.779995,0 -89.169955,13.780203,0 -89.17024,13.780688,0 -89.17024,13.781034,0 -89.170169,13.781103,0 -89.170169,13.781726,0 -89.170062,13.78183,0 -89.169279,13.781969,0 -89.168923,13.782246,0 -89.168211,13.782315,0 -89.168033,13.782419,0 -89.167962,13.784081,0 -89.167856,13.784184,0 -89.1675,13.784254,0 -89.167428,13.784323,0 -89.167144,13.784323,0 -89.166503,13.784738,0 -89.166218,13.785015,0 -89.166147,13.785015,0 -89.164937,13.786054,0 -89.164368,13.786123,0 -89.164297,13.786192,0 -89.164012,13.786192,0 -89.163656,13.786331,0 -89.163371,13.786331,0 -89.1633,13.7864,0 -89.162873,13.7864,0 -89.162802,13.786469,0 -89.162375,13.7864,0 -89.162303,13.786331,0 -89.162019,13.786331,0 -89.161948,13.786262,0 -89.161093,13.786262,0 -89.161022,13.786192,0 -89.16031,13.786192,0 -89.160239,13.786123,0 -89.160097,13.786192,0 -89.159599,13.786192,0 -89.159527,13.786262,0 -89.1591,13.786262,0 -89.159029,13.786331,0 -89.158531,13.786331,0 -89.157677,13.785915,0 -89.157534,13.785915,0 -89.157357,13.785742,0 -89.157357,13.785604,0 -89.156787,13.784565,0 -89.155755,13.783423,0 -89.155684,13.783492,0 -89.15547,13.783492,0 -89.155114,13.783631,0 -89.154616,13.783631,0 -89.154509,13.783527,0 -89.15458,13.782973,0 -89.154367,13.782557,0 -89.154367,13.782003,0 -89.15426,13.7819,0 -89.153975,13.7819,0 -89.153798,13.781726,0 -89.153726,13.781311,0 -89.153548,13.781138,0 -89.153406,13.781138,0 -89.153015,13.780896,0 -89.152587,13.780272,0 -89.15184,13.779407,0 -89.151342,13.779476,0 -89.151093,13.779303,0 -89.151093,13.779095,0 -89.151164,13.779026,0 -89.151306,13.778541,0 -89.150879,13.778126,0 -89.150879,13.77778,0 -89.151093,13.777364,0 -89.151164,13.776741,0 -89.151306,13.776464,0 -89.151306,13.776326,0 -89.15152,13.775979,0 -89.151662,13.774941,0 -89.151271,13.774491,0 -89.150879,13.774248,0 -89.150737,13.773487,0 -89.150559,13.773314,0 -89.150061,13.773106,0 -89.14974,13.772794,0 -89.149028,13.77141,0 -89.149028,13.771271,0 -89.148815,13.770994,0 -89.148815,13.770856,0 -89.148744,13.770786,0 -89.148744,13.770232,0 -89.148673,13.770094,0 -89.148032,13.769609,0 -89.148032,13.76954,0 -89.147676,13.769125,0 -89.14732,13.768432,0 -89.147249,13.768086,0 -89.147107,13.767809,0 -89.145897,13.766701,0 -89.145968,13.766563,0 -89.146075,13.766528,0 -89.14643,13.766736,0 -89.147,13.766736,0 -89.147071,13.766805,0 -89.147285,13.766805,0 -89.147569,13.766944,0 -89.147925,13.766944,0 -89.148281,13.767082,0 -89.149206,13.767013,0 -89.149313,13.766909,0 -89.14974,13.766009,0 -89.149918,13.765836,0 -89.150737,13.765316,0 -89.150737,13.765247,0 -89.151662,13.764209,0 -89.151662,13.764139,0 -89.152303,13.763447,0 -89.152445,13.762962,0 -89.152516,13.762893,0 -89.152516,13.762754,0 -89.152694,13.762512,0 -89.152908,13.762651,0 -89.153264,13.762651,0 -89.153335,13.76272,0 -89.153477,13.76272,0 -89.153798,13.762339,0 -89.154189,13.762027,0 -89.155186,13.761889,0 -89.155257,13.76182,0 -89.155541,13.76182,0 -89.155613,13.761751,0 -89.155897,13.761751,0 -89.156751,13.761335,0 -89.156929,13.761162,0 -89.157072,13.760885,0 -89.157285,13.760677,0 -89.157285,13.76047,0 -89.157214,13.7604,0 -89.157214,13.760262,0 -89.157285,13.760193,0 -89.157285,13.757908,0 -89.157357,13.757838,0 -89.157357,13.757561,0 -89.157499,13.757284,0 -89.15757,13.756731,0 -89.157641,13.756661,0 -89.157712,13.756246,0 -89.157784,13.756177,0 -89.157855,13.755692,0 -89.157926,13.755623,0 -89.157997,13.754723,0 -89.158068,13.754653,0 -89.158068,13.754169,0 -89.158139,13.754099,0 -89.158139,13.753892,0 -89.158282,13.753615,0 -89.158282,13.753407,0 -89.158353,13.753338,0 -89.158353,13.752645,0 -89.157997,13.751814,0 -89.158068,13.751676,0 -89.158068,13.75133,0 -89.158139,13.751261,0 -89.158139,13.750776,0 -89.157997,13.750637,0 -89.157784,13.750222,0 -89.158033,13.74998,0 -89.158531,13.74991,0 -89.158602,13.749841,0 -89.160026,13.749841,0 -89.160097,13.749772,0</coordinates></LinearRing></outerBoundaryIs></Polygon></MultiGeometry></Placemark><Placemark><name>Zona 15</name><styleUrl>#z</styleUrl><MultiGeometry><Polygon><outerBoundaryIs><LinearRing><coordinates>-89.171414,13.780584,0 -89.171592,13.780757,0 -89.171877,13.781311,0 -89.171877,13.781449,0 -89.172304,13.782211,0 -89.172304,13.78235,0 -89.172518,13.782696,0 -89.172411,13.7828,0 -89.17177,13.7828,0 -89.171521,13.782973,0 -89.17145,13.783527,0 -89.171379,13.783596,0 -89.171379,13.78505,0 -89.171272,13.785154,0 -89.171059,13.785154,0 -89.170809,13.785258,0 -89.170596,13.785673,0 -89.169884,13.786504,0 -89.169884,13.786781,0 -89.170026,13.786989,0 -89.170026,13.787266,0 -89.169955,13.787335,0 -89.169955,13.788166,0 -89.169884,13.788235,0 -89.169884,13.789066,0 -89.169813,13.789204,0 -89.1675,13.791247,0 -89.167215,13.791385,0 -89.167037,13.791143,0 -89.167037,13.790035,0 -89.166966,13.789966,0 -89.166966,13.788858,0 -89.167037,13.788789,0 -89.167037,13.788374,0 -89.166966,13.788304,0 -89.166966,13.788027,0 -89.166681,13.787612,0 -89.166681,13.787335,0 -89.166752,13.787266,0 -89.166752,13.786989,0 -89.166966,13.786712,0 -89.16725,13.786158,0 -89.167322,13.785881,0 -89.167001,13.7855,0 -89.166503,13.785292,0 -89.166325,13.78505,0 -89.166325,13.784911,0 -89.167144,13.784323,0 -89.167428,13.784323,0 -89.1675,13.784254,0 -89.167962,13.78415,0 -89.168033,13.782488,0 -89.168211,13.782315,0 -89.168923,13.782246,0 -89.169279,13.781969,0 -89.169849,13.7819,0 -89.170204,13.781761,0 -89.170276,13.78183,0 -89.17056,13.78183,0 -89.170987,13.781553,0 -89.171237,13.781311,0 -89.171237,13.781172,0 -89.171308,13.781103,0 -89.171308,13.780688,0 -89.171414,13.780584,0</coordinates></LinearRing></outerBoundaryIs></Polygon></MultiGeometry></Placemark><Placemark><name>Zona 16</name><styleUrl>#z</styleUrl><MultiGeometry><Polygon><outerBoundaryIs><LinearRing><coordinates>-89.175045,13.746795,0 -89.175329,13.746933,0 -89.176539,13.747902,0 -89.177322,13.74811,0 -89.177394,13.748179,0 -89.178177,13.748387,0 -89.178675,13.748595,0 -89.178888,13.748595,0 -89.17896,13.748664,0 -89.179315,13.748664,0 -89.179387,13.748733,0 -89.179671,13.748733,0 -89.179743,13.748803,0 -89.180098,13.748803,0 -89.18017,13.748872,0 -89.180526,13.748872,0 -89.180597,13.748941,0 -89.180953,13.748941,0 -89.181024,13.74901,0 -89.18138,13.74901,0 -89.181451,13.749079,0 -89.181736,13.749079,0 -89.181807,13.749149,0 -89.182163,13.749149,0 -89.182234,13.749218,0 -89.182874,13.749287,0 -89.183159,13.749426,0 -89.183942,13.749633,0 -89.184013,13.749703,0 -89.184156,13.749703,0 -89.185864,13.750534,0 -89.186398,13.751053,0 -89.186398,13.751122,0 -89.186825,13.751538,0 -89.186825,13.751745,0 -89.186896,13.751814,0 -89.186896,13.75223,0 -89.186967,13.752299,0 -89.186967,13.752784,0 -89.187038,13.752853,0 -89.187038,13.753269,0 -89.18711,13.753338,0 -89.18711,13.753546,0 -89.187537,13.754169,0 -89.187608,13.754792,0 -89.188498,13.755588,0 -89.188782,13.755727,0 -89.188925,13.755727,0 -89.189031,13.75583,0 -89.189031,13.755969,0 -89.188676,13.756384,0 -89.188462,13.7568,0 -89.188177,13.757077,0 -89.188177,13.757146,0 -89.187964,13.757354,0 -89.187537,13.757977,0 -89.187252,13.758254,0 -89.187181,13.758462,0 -89.187038,13.7586,0 -89.186967,13.758808,0 -89.186825,13.758946,0 -89.186754,13.759154,0 -89.186433,13.759604,0 -89.186291,13.759604,0 -89.186006,13.759466,0 -89.185793,13.759466,0 -89.185722,13.759396,0 -89.185437,13.759396,0 -89.185366,13.759327,0 -89.184939,13.759604,0 -89.184084,13.759743,0 -89.183729,13.75995,0 -89.183586,13.75995,0 -89.183088,13.759466,0 -89.182946,13.759396,0 -89.182376,13.759396,0 -89.182269,13.759292,0 -89.182341,13.758808,0 -89.182234,13.758704,0 -89.18202,13.758704,0 -89.181878,13.758635,0 -89.181629,13.758254,0 -89.181629,13.758115,0 -89.181486,13.757838,0 -89.181486,13.757008,0 -89.180597,13.75635,0 -89.179031,13.755588,0 -89.178568,13.755277,0 -89.178568,13.753615,0 -89.178355,13.75313,0 -89.178355,13.752922,0 -89.178212,13.752715,0 -89.178212,13.752576,0 -89.177999,13.752161,0 -89.177999,13.752022,0 -89.177856,13.751814,0 -89.177856,13.751676,0 -89.177643,13.751261,0 -89.176717,13.750291,0 -89.176717,13.750153,0 -89.176433,13.74946,0 -89.176255,13.749356,0 -89.175614,13.749356,0 -89.175543,13.749287,0 -89.175329,13.749287,0 -89.175045,13.749079,0 -89.174689,13.749218,0 -89.174191,13.749218,0 -89.174084,13.749114,0 -89.174155,13.749045,0 -89.174155,13.748352,0 -89.174297,13.748006,0 -89.17444,13.747868,0 -89.17444,13.747452,0 -89.174582,13.747175,0 -89.175045,13.746795,0</coordinates></LinearRing></outerBoundaryIs></Polygon></MultiGeometry></Placemark><Placemark><name>Zona 17</name><styleUrl>#z</styleUrl><MultiGeometry><Polygon><outerBoundaryIs><LinearRing><coordinates>-89.174618,13.746656,0 -89.17476,13.746656,0 -89.175009,13.746829,0 -89.174582,13.747175,0 -89.17444,13.747452,0 -89.17444,13.747868,0 -89.174297,13.748006,0 -89.174155,13.748352,0 -89.174155,13.749045,0 -89.174084,13.749114,0 -89.174191,13.749218,0 -89.174689,13.749218,0 -89.175045,13.749079,0 -89.175329,13.749287,0 -89.175543,13.749287,0 -89.175614,13.749356,0 -89.176255,13.749356,0 -89.176504,13.749599,0 -89.176646,13.750083,0 -89.176717,13.750153,0 -89.176717,13.750291,0 -89.177643,13.751261,0 -89.177856,13.751676,0 -89.177856,13.751814,0 -89.177999,13.752022,0 -89.17807,13.752368,0 -89.178212,13.752576,0 -89.178212,13.752715,0 -89.178355,13.752922,0 -89.178355,13.75313,0 -89.178568,13.753615,0 -89.178568,13.755277,0 -89.179031,13.755588,0 -89.180597,13.75635,0 -89.181486,13.757008,0 -89.181486,13.757838,0 -89.181558,13.757908,0 -89.181629,13.758254,0 -89.181771,13.758462,0 -89.181771,13.7586,0 -89.18202,13.758704,0 -89.182234,13.758704,0 -89.182341,13.758808,0 -89.182341,13.759016,0 -89.182269,13.759085,0 -89.182305,13.759396,0 -89.182946,13.759396,0 -89.183088,13.759466,0 -89.183586,13.75995,0 -89.183729,13.75995,0 -89.184084,13.759743,0 -89.184939,13.759604,0 -89.185366,13.759327,0 -89.185437,13.759396,0 -89.185722,13.759396,0 -89.185793,13.759466,0 -89.18622,13.759535,0 -89.186398,13.759708,0 -89.185828,13.760608,0 -89.185828,13.761231,0 -89.186184,13.761577,0 -89.186327,13.761924,0 -89.186149,13.762097,0 -89.185722,13.762166,0 -89.18565,13.762097,0 -89.185508,13.762097,0 -89.185366,13.761958,0 -89.18501,13.761958,0 -89.184796,13.761751,0 -89.184156,13.761751,0 -89.183871,13.761889,0 -89.183657,13.761889,0 -89.18323,13.762166,0 -89.183088,13.762166,0 -89.183017,13.762097,0 -89.182376,13.762166,0 -89.182127,13.762339,0 -89.182127,13.762478,0 -89.181949,13.762651,0 -89.181878,13.762581,0 -89.181522,13.762581,0 -89.181166,13.76272,0 -89.180668,13.762789,0 -89.179956,13.763066,0 -89.179743,13.763066,0 -89.179529,13.763205,0 -89.179315,13.763205,0 -89.179244,13.763274,0 -89.17896,13.763274,0 -89.178675,13.763412,0 -89.178461,13.763412,0 -89.178248,13.763551,0 -89.177749,13.763689,0 -89.177394,13.763897,0 -89.177251,13.763897,0 -89.177002,13.76407,0 -89.176931,13.764209,0 -89.177002,13.764416,0 -89.17686,13.764624,0 -89.17686,13.764762,0 -89.177002,13.76497,0 -89.177002,13.765247,0 -89.176895,13.765351,0 -89.176184,13.765351,0 -89.176077,13.765247,0 -89.176006,13.765178,0 -89.176006,13.764762,0 -89.175934,13.764693,0 -89.175934,13.764486,0 -89.175685,13.764174,0 -89.175401,13.764174,0 -89.175329,13.764243,0 -89.175258,13.764174,0 -89.17476,13.764174,0 -89.174689,13.764105,0 -89.174546,13.764174,0 -89.174048,13.764174,0 -89.173977,13.764243,0 -89.173479,13.764243,0 -89.173408,13.764174,0 -89.172411,13.764174,0 -89.17234,13.764105,0 -89.171628,13.764105,0 -89.171557,13.764174,0 -89.171272,13.764174,0 -89.171023,13.764347,0 -89.171023,13.766355,0 -89.171201,13.766528,0 -89.171557,13.766528,0 -89.171664,13.766632,0 -89.171664,13.766978,0 -89.171343,13.767497,0 -89.170916,13.767497,0 -89.170738,13.767671,0 -89.170809,13.768294,0 -89.170703,13.768398,0 -89.170276,13.768398,0 -89.169991,13.768605,0 -89.169849,13.768605,0 -89.169457,13.768155,0 -89.169457,13.767948,0 -89.169386,13.767878,0 -89.169386,13.767463,0 -89.169813,13.766909,0 -89.169813,13.76677,0 -89.169884,13.766701,0 -89.169884,13.766286,0 -89.169813,13.766217,0 -89.169813,13.766078,0 -89.169599,13.76587,0 -89.169528,13.765663,0 -89.169315,13.765455,0 -89.169101,13.765039,0 -89.168816,13.764693,0 -89.168461,13.764416,0 -89.168389,13.764209,0 -89.169066,13.763828,0 -89.169279,13.763828,0 -89.169457,13.763655,0 -89.169528,13.763516,0 -89.169528,13.763101,0 -89.169457,13.763031,0 -89.169457,13.762685,0 -89.169386,13.762616,0 -89.169386,13.761993,0 -89.169528,13.761785,0 -89.169599,13.760885,0 -89.169777,13.760643,0 -89.170062,13.760573,0 -89.170276,13.760435,0 -89.170418,13.760435,0 -89.170952,13.759985,0 -89.171023,13.759846,0 -89.171023,13.758808,0 -89.17145,13.758323,0 -89.17145,13.758185,0 -89.171023,13.757561,0 -89.171094,13.757423,0 -89.171094,13.756177,0 -89.171308,13.755761,0 -89.171308,13.755277,0 -89.171592,13.75493,0 -89.171806,13.754376,0 -89.172091,13.75403,0 -89.172091,13.753684,0 -89.172304,13.753407,0 -89.172375,13.752645,0 -89.172518,13.752438,0 -89.172518,13.751884,0 -89.172304,13.751399,0 -89.172233,13.750845,0 -89.171735,13.750291,0 -89.171664,13.749668,0 -89.171735,13.749599,0 -89.171806,13.749183,0 -89.171948,13.748976,0 -89.171948,13.748837,0 -89.173479,13.74721,0 -89.174618,13.746656,0</coordinates></LinearRing></outerBoundaryIs></Polygon></MultiGeometry></Placemark><Placemark><name>Zona 18</name><styleUrl>#z</styleUrl><MultiGeometry><Polygon><outerBoundaryIs><LinearRing><coordinates>-89.181237,13.741186,0 -89.18138,13.741186,0 -89.182234,13.741602,0 -89.182412,13.741775,0 -89.182341,13.742329,0 -89.18259,13.74264,0 -89.183088,13.74264,0 -89.183586,13.742086,0 -89.183657,13.742155,0 -89.183871,13.742155,0 -89.184156,13.742363,0 -89.184939,13.742294,0 -89.185117,13.742121,0 -89.185188,13.741775,0 -89.185295,13.741671,0 -89.185508,13.741671,0 -89.185686,13.741844,0 -89.185615,13.741982,0 -89.185615,13.742259,0 -89.185722,13.742432,0 -89.185864,13.742432,0 -89.186078,13.742571,0 -89.186505,13.742571,0 -89.187501,13.743263,0 -89.188213,13.743263,0 -89.188426,13.743402,0 -89.188569,13.743402,0 -89.188996,13.743609,0 -89.189743,13.744267,0 -89.189672,13.744683,0 -89.189743,13.744752,0 -89.189743,13.745098,0 -89.189814,13.745167,0 -89.189814,13.745306,0 -89.189708,13.74541,0 -89.189565,13.74541,0 -89.189316,13.745721,0 -89.189316,13.746829,0 -89.189494,13.747002,0 -89.190277,13.747002,0 -89.190348,13.747072,0 -89.19163,13.747072,0 -89.191736,13.747175,0 -89.191736,13.747868,0 -89.191665,13.747937,0 -89.191665,13.74946,0 -89.191594,13.74953,0 -89.191594,13.750014,0 -89.19138,13.75036,0 -89.19138,13.750568,0 -89.191309,13.750637,0 -89.191309,13.750776,0 -89.19138,13.750845,0 -89.19138,13.751538,0 -89.190597,13.752645,0 -89.190384,13.753061,0 -89.190384,13.753199,0 -89.190242,13.753407,0 -89.190242,13.753546,0 -89.190099,13.753753,0 -89.190099,13.753892,0 -89.189957,13.754099,0 -89.189957,13.754238,0 -89.189814,13.754446,0 -89.189814,13.754584,0 -89.189601,13.75493,0 -89.189601,13.755069,0 -89.189316,13.755415,0 -89.189245,13.755623,0 -89.189067,13.755796,0 -89.188498,13.755588,0 -89.187608,13.754792,0 -89.187537,13.754169,0 -89.18711,13.753546,0 -89.18711,13.753338,0 -89.187038,13.753269,0 -89.187038,13.752853,0 -89.186967,13.752784,0 -89.186967,13.752299,0 -89.186896,13.75223,0 -89.186896,13.751814,0 -89.186825,13.751745,0 -89.186825,13.751538,0 -89.185864,13.750534,0 -89.184156,13.749703,0 -89.184013,13.749703,0 -89.183942,13.749633,0 -89.183159,13.749426,0 -89.182874,13.749287,0 -89.182234,13.749218,0 -89.182163,13.749149,0 -89.181807,13.749149,0 -89.181736,13.749079,0 -89.181451,13.749079,0 -89.18138,13.74901,0 -89.181024,13.74901,0 -89.180953,13.748941,0 -89.180597,13.748941,0 -89.180526,13.748872,0 -89.18017,13.748872,0 -89.180098,13.748803,0 -89.179743,13.748803,0 -89.179671,13.748733,0 -89.179387,13.748733,0 -89.179315,13.748664,0 -89.17896,13.748664,0 -89.178888,13.748595,0 -89.178675,13.748595,0 -89.17839,13.748456,0 -89.178248,13.748456,0 -89.178177,13.748387,0 -89.178034,13.748387,0 -89.177109,13.748041,0 -89.176539,13.747902,0 -89.175329,13.746933,0 -89.175258,13.746933,0 -89.17508,13.74676,0 -89.175151,13.746691,0 -89.175151,13.746552,0 -89.174724,13.746206,0 -89.174724,13.745929,0 -89.174796,13.745791,0 -89.174902,13.745687,0 -89.175258,13.745548,0 -89.175579,13.745237,0 -89.17565,13.745029,0 -89.175756,13.744925,0 -89.176326,13.744994,0 -89.176753,13.745202,0 -89.176967,13.745202,0 -89.177287,13.744683,0 -89.177287,13.744406,0 -89.177465,13.744233,0 -89.177821,13.744233,0 -89.178105,13.743886,0 -89.17839,13.743817,0 -89.178817,13.74354,0 -89.179031,13.743471,0 -89.180454,13.741948,0 -89.18081,13.741878,0 -89.180988,13.741705,0 -89.181131,13.741498,0 -89.181131,13.74129,0 -89.181237,13.741186,0</coordinates></LinearRing></outerBoundaryIs></Polygon></MultiGeometry></Placemark></Document></kml>