{"type":"FeatureCollection","features":[{"type":"Feature","properties":{"zona":1,"lab":[13.723007,-89.171503]},"geometry":{"type":"MultiPolygon","coordinates":[[[[-89.17177,13.716052],[-89.17234,13.71619],[-89.172518,13.716363],[-89.172304,13.71664],[-89.172304,13.717125],[-89.172589,13.717402],[-89.172589,13.71754],[-89.173016,13.717887],[-89.173016,13.718371],[-89.173265,13.718614],[-89.173408,13.718614],[-89.173728,13.718925],[-89.173728,13.719341],[-89.174013,13.719618],[-89.173941,13.719825],[-89.173585,13.720241],[-89.173585,13.720449],[-89.173443,13.720725],[-89.173443,13.721002],[-89.173514,13.721072],[-89.173585,13.721418],[-89.173728,13.721626],[-89.173799,13.722041],[-89.174084,13.722387],[-89.174155,13.72301],[-89.174368,13.723357],[-89.17444,13.723772],[-89.174724,13.724049],[-89.174724,13.724257],[-89.174618,13.724361],[-89.174119,13.724638],[-89.173906,13.724638],[-89.173728,13.724811],[-89.173301,13.725642],[-89.173443,13.726126],[-89.17323,13.726403],[-89.17323,13.726542],[-89.173158,13.726611],[-89.173158,13.727234],[-89.172482,13.727823],[-89.172269,13.727823],[-89.172055,13.727615],[-89.171699,13.727407],[-89.170952,13.72668],[-89.170952,13.726611],[-89.170667,13.726334],[-89.170667,13.725642],[-89.170347,13.725261],[-89.169279,13.725261],[-89.169172,13.725157],[-89.169172,13.724949],[-89.169101,13.72488],[-89.169101,13.724464],[-89.16903,13.724395],[-89.16903,13.723287],[-89.168532,13.722733],[-89.168389,13.722456],[-89.168033,13.72218],[-89.167962,13.722041],[-89.168033,13.721626],[-89.167962,13.721556],[-89.167962,13.721279],[-89.167891,13.72121],[-89.167891,13.721002],[-89.167998,13.720899],[-89.169137,13.720691],[-89.169279,13.720622],[-89.169457,13.720379],[-89.169599,13.719825],[-89.169742,13.719548],[-89.169742,13.719341],[-89.169813,13.719271],[-89.169813,13.719133],[-89.170098,13.718441],[-89.170098,13.718164],[-89.170169,13.718094],[-89.170169,13.717056],[-89.170098,13.716986],[-89.170098,13.716502],[-89.170204,13.716398],[-89.170774,13.716398],[-89.170845,13.716467],[-89.171343,13.716467],[-89.171414,13.716536],[-89.171592,13.716363],[-89.171664,13.716156],[-89.17177,13.716052]]]]}},{"type":"Feature","properties":{"zona":2,"lab":[13.716982,-89.164593]},"geometry":{"type":"MultiPolygon","coordinates":[[[[-89.161734,13.712728],[-89.162019,13.712867],[-89.162517,13.712867],[-89.163015,13.713074],[-89.163229,13.713074],[-89.1633,13.713144],[-89.163727,13.713144],[-89.163798,13.713213],[-89.164297,13.713144],[-89.164368,13.713213],[-89.164724,13.713213],[-89.165151,13.713421],[-89.165435,13.713351],[-89.16572,13.713144],[-89.166432,13.713144],[-89.167001,13.71349],[-89.1675,13.71349],[-89.167571,13.713559],[-89.167713,13.713559],[-89.168781,13.714736],[-89.169137,13.714736],[-89.169528,13.715186],[-89.169599,13.715325],[-89.169599,13.715809],[-89.169742,13.716156],[-89.170098,13.716433],[-89.170098,13.716986],[-89.170169,13.717056],[-89.170169,13.718094],[-89.170098,13.718164],[-89.170098,13.718441],[-89.169813,13.719133],[-89.169813,13.719271],[-89.169742,13.719341],[-89.169742,13.719548],[-89.169599,13.719825],[-89.169457,13.720379],[-89.169279,13.720622],[-89.169137,13.720691],[-89.168923,13.720691],[-89.168852,13.72076],[-89.168211,13.720829],[-89.16814,13.720899],[-89.167998,13.720899],[-89.167856,13.721037],[-89.167428,13.721037],[-89.167357,13.720968],[-89.166717,13.721037],[-89.16661,13.720933],[-89.16661,13.720725],[-89.166503,13.720622],[-89.166147,13.720552],[-89.166076,13.720483],[-89.165862,13.720622],[-89.16572,13.720483],[-89.165507,13.720483],[-89.165293,13.72076],[-89.164439,13.72076],[-89.164083,13.720552],[-89.164047,13.720587],[-89.164047,13.720864],[-89.163905,13.721072],[-89.163905,13.721764],[-89.164047,13.721972],[-89.164047,13.722318],[-89.164119,13.722387],[-89.164119,13.723634],[-89.164047,13.723703],[-89.164047,13.724187],[-89.164261,13.724395],[-89.164261,13.724672],[-89.164332,13.724741],[-89.16419,13.725018],[-89.16419,13.725295],[-89.164546,13.725988],[-89.164546,13.726126],[-89.16483,13.726611],[-89.16483,13.726749],[-89.165115,13.727165],[-89.165186,13.727442],[-89.1654,13.727719],[-89.165044,13.728134],[-89.165044,13.72848],[-89.164617,13.729311],[-89.164154,13.729761],[-89.163869,13.729761],[-89.163763,13.729865],[-89.163763,13.730281],[-89.16419,13.730558],[-89.164261,13.730973],[-89.164154,13.731077],[-89.163371,13.731077],[-89.163086,13.731423],[-89.162731,13.731285],[-89.162517,13.731285],[-89.16209,13.731008],[-89.161805,13.731008],[-89.161698,13.730904],[-89.161627,13.730627],[-89.16177,13.730488],[-89.16177,13.730281],[-89.161627,13.730004],[-89.161627,13.729796],[-89.161485,13.729519],[-89.160844,13.728965],[-89.16056,13.728411],[-89.16056,13.727857],[-89.160773,13.72758],[-89.160915,13.727234],[-89.160915,13.726819],[-89.160987,13.726749],[-89.160987,13.726472],[-89.161058,13.726403],[-89.161058,13.726057],[-89.16088,13.725884],[-89.160453,13.725884],[-89.160097,13.726022],[-89.159919,13.725919],[-89.159919,13.725226],[-89.15999,13.725157],[-89.15999,13.72488],[-89.160061,13.724811],[-89.15999,13.724741],[-89.15999,13.724395],[-89.159848,13.724118],[-89.159848,13.72398],[-89.159492,13.723357],[-89.159492,13.723149],[-89.15967,13.722976],[-89.160097,13.722837],[-89.160346,13.722526],[-89.160346,13.72211],[-89.15999,13.721695],[-89.15999,13.720795],[-89.159919,13.720725],[-89.159919,13.720449],[-89.160061,13.720241],[-89.160133,13.719687],[-89.160346,13.719202],[-89.160346,13.718994],[-89.160204,13.718717],[-89.160595,13.718267],[-89.160809,13.718198],[-89.160987,13.718025],[-89.160987,13.717679],[-89.160844,13.717402],[-89.160773,13.716848],[-89.16056,13.716433],[-89.16056,13.716017],[-89.160915,13.715602],[-89.160915,13.715325],[-89.160844,13.715255],[-89.160844,13.715117],[-89.160488,13.714702],[-89.160488,13.714425],[-89.160702,13.714009],[-89.160702,13.713871],[-89.160915,13.713524],[-89.160915,13.713386],[-89.161307,13.713005],[-89.161521,13.712936],[-89.161734,13.712728]]]]}},{"type":"Feature","properties":{"zona":3,"lab":[13.739946,-89.16709]},"geometry":{"type":"MultiPolygon","coordinates":[[[[-89.169635,13.732462],[-89.169777,13.732462],[-89.170026,13.732704],[-89.170098,13.732843],[-89.170098,13.733189],[-89.170276,13.733362],[-89.170845,13.733708],[-89.171059,13.733708],[-89.17113,13.733777],[-89.171414,13.733362],[-89.171486,13.733293],[-89.171628,13.733293],[-89.171735,13.733396],[-89.171664,13.734158],[-89.17177,13.734262],[-89.171913,13.734262],[-89.172269,13.73447],[-89.172625,13.734816],[-89.172838,13.734885],[-89.173016,13.735128],[-89.173016,13.735404],[-89.172874,13.735681],[-89.172874,13.735958],[-89.172945,13.736028],[-89.172945,13.736235],[-89.172874,13.736305],[-89.172874,13.736928],[-89.173016,13.737205],[-89.172945,13.737274],[-89.172874,13.737689],[-89.172731,13.737897],[-89.172731,13.738382],[-89.172874,13.73859],[-89.172874,13.738936],[-89.172731,13.739143],[-89.172731,13.73949],[-89.172518,13.739836],[-89.172553,13.740217],[-89.172696,13.740286],[-89.173052,13.740286],[-89.173123,13.740217],[-89.173265,13.740217],[-89.173479,13.73994],[-89.173977,13.739732],[-89.174155,13.739559],[-89.174155,13.73949],[-89.174546,13.739178],[-89.175045,13.738901],[-89.175258,13.738901],[-89.175472,13.738763],[-89.175899,13.738763],[-89.17597,13.738693],[-89.176753,13.738693],[-89.176824,13.738624],[-89.176895,13.738693],[-89.177394,13.738693],[-89.177572,13.73859],[-89.177572,13.73852],[-89.178177,13.737932],[-89.178497,13.738243],[-89.178568,13.738451],[-89.178746,13.738624],[-89.17896,13.738624],[-89.179031,13.738693],[-89.179387,13.738763],[-89.1796,13.738901],[-89.179743,13.738832],[-89.180241,13.738832],[-89.180561,13.739143],[-89.180703,13.739351],[-89.180703,13.739559],[-89.18081,13.739663],[-89.181024,13.739732],[-89.181202,13.739905],[-89.181202,13.740805],[-89.181131,13.740874],[-89.181202,13.741013],[-89.181202,13.741221],[-89.181131,13.74129],[-89.181131,13.741498],[-89.180988,13.741705],[-89.18081,13.741878],[-89.180454,13.741948],[-89.179031,13.743471],[-89.178817,13.74354],[-89.17839,13.743817],[-89.178034,13.743886],[-89.177821,13.744233],[-89.177465,13.744233],[-89.177287,13.744406],[-89.177287,13.744683],[-89.176967,13.745202],[-89.176753,13.745202],[-89.176326,13.744994],[-89.175756,13.744925],[-89.175507,13.745306],[-89.175258,13.745548],[-89.174902,13.745687],[-89.174724,13.745929],[-89.174724,13.746206],[-89.175151,13.746552],[-89.175151,13.746691],[-89.174973,13.746795],[-89.17476,13.746656],[-89.174618,13.746656],[-89.173479,13.74721],[-89.171948,13.748837],[-89.171948,13.748976],[-89.17177,13.749218],[-89.171699,13.749149],[-89.171557,13.749149],[-89.171414,13.74901],[-89.171308,13.748906],[-89.171237,13.748699],[-89.170987,13.748456],[-89.170845,13.748456],[-89.170774,13.748387],[-89.170703,13.748456],[-89.170418,13.748456],[-89.170062,13.748595],[-89.16992,13.748595],[-89.169849,13.748526],[-89.169421,13.748595],[-89.169244,13.748699],[-89.169066,13.748941],[-89.168994,13.748872],[-89.168781,13.748872],[-89.168567,13.748664],[-89.167784,13.748664],[-89.1675,13.748803],[-89.167001,13.748872],[-89.166717,13.74901],[-89.166503,13.74901],[-89.166432,13.749079],[-89.166325,13.748976],[-89.166325,13.748768],[-89.166396,13.748699],[-89.166468,13.748283],[-89.16629,13.748041],[-89.166147,13.747972],[-89.165151,13.747972],[-89.16508,13.748041],[-89.164937,13.748041],[-89.164866,13.747972],[-89.164652,13.747972],[-89.164474,13.747799],[-89.164332,13.747314],[-89.164261,13.747245],[-89.164261,13.747106],[-89.16419,13.747037],[-89.164119,13.746621],[-89.16362,13.745721],[-89.16362,13.744683],[-89.163691,13.744613],[-89.163691,13.744198],[-89.16209,13.742848],[-89.161165,13.742779],[-89.16088,13.743056],[-89.160809,13.743056],[-89.160631,13.742813],[-89.160631,13.742121],[-89.160702,13.742052],[-89.160702,13.741705],[-89.160844,13.741359],[-89.160844,13.741082],[-89.160915,13.741013],[-89.160915,13.740598],[-89.161414,13.739628],[-89.161556,13.73949],[-89.161698,13.738936],[-89.16177,13.738866],[-89.16177,13.738659],[-89.161556,13.738382],[-89.161556,13.738243],[-89.161485,13.738174],[-89.161414,13.73762],[-89.161627,13.737135],[-89.162197,13.736374],[-89.16241,13.73582],[-89.162695,13.735404],[-89.163478,13.734851],[-89.163549,13.734712],[-89.163549,13.734366],[-89.163656,13.734262],[-89.163798,13.734193],[-89.164225,13.734193],[-89.164297,13.734124],[-89.164439,13.734124],[-89.16508,13.733708],[-89.165293,13.733708],[-89.165364,13.733639],[-89.165542,13.733812],[-89.165542,13.73395],[-89.165649,13.734054],[-89.165791,13.734054],[-89.165862,13.733985],[-89.16629,13.733985],[-89.166717,13.733777],[-89.166895,13.73395],[-89.167001,13.734193],[-89.167357,13.734124],[-89.1675,13.734262],[-89.167678,13.734089],[-89.167962,13.733604],[-89.168318,13.733327],[-89.168389,13.73312],[-89.16871,13.732669],[-89.169493,13.7326],[-89.169635,13.732462]]]]}},{"type":"Feature","properties":{"zona":4,"lab":[13.721814,-89.151797]},"geometry":{"type":"MultiPolygon","coordinates":[[[[-89.150416,13.717298],[-89.151057,13.717298],[-89.152552,13.717921],[-89.15362,13.717921],[-89.153691,13.717852],[-89.153833,13.717852],[-89.154047,13.71806],[-89.15426,13.71806],[-89.154474,13.717852],[-89.154972,13.717921],[-89.155043,13.71799],[-89.155328,13.717783],[-89.15547,13.717783],[-89.155648,13.717956],[-89.155791,13.718233],[-89.155719,13.718371],[-89.155719,13.718579],[-89.155897,13.718752],[-89.156111,13.718752],[-89.156218,13.718856],[-89.156218,13.718994],[-89.156075,13.719202],[-89.156004,13.719479],[-89.155719,13.719756],[-89.155719,13.720033],[-89.15604,13.720414],[-89.156253,13.720414],[-89.156467,13.720206],[-89.15668,13.720206],[-89.157748,13.721245],[-89.158033,13.721245],[-89.158246,13.721037],[-89.15846,13.721037],[-89.1591,13.72166],[-89.159314,13.72166],[-89.159456,13.721591],[-89.159634,13.721418],[-89.159777,13.721141],[-89.159777,13.720933],[-89.159883,13.720829],[-89.15999,13.720933],[-89.15999,13.721695],[-89.160346,13.72211],[-89.160346,13.722526],[-89.160097,13.722837],[-89.15967,13.722976],[-89.159492,13.723149],[-89.159492,13.723357],[-89.159848,13.72398],[-89.159848,13.724118],[-89.15999,13.724395],[-89.15999,13.724741],[-89.160061,13.724811],[-89.15999,13.72488],[-89.15999,13.725157],[-89.159919,13.725226],[-89.159919,13.725919],[-89.160097,13.726022],[-89.160453,13.725884],[-89.16088,13.725884],[-89.161058,13.726057],[-89.161058,13.726403],[-89.160987,13.726472],[-89.160987,13.726749],[-89.160915,13.726819],[-89.160915,13.727234],[-89.160773,13.72758],[-89.16056,13.727857],[-89.16056,13.728411],[-89.160844,13.728965],[-89.161485,13.729519],[-89.161627,13.729796],[-89.161627,13.730004],[-89.16177,13.730281],[-89.16177,13.730488],[-89.161592,13.730661],[-89.161307,13.7308],[-89.160738,13.730869],[-89.160453,13.731008],[-89.160239,13.731008],[-89.160168,13.731077],[-89.15967,13.731146],[-89.159599,13.731215],[-89.159243,13.731215],[-89.158922,13.730904],[-89.158353,13.729727],[-89.158246,13.729623],[-89.157962,13.729623],[-89.157748,13.729761],[-89.157321,13.729831],[-89.15725,13.7299],[-89.155684,13.7299],[-89.155577,13.729796],[-89.155577,13.729658],[-89.155506,13.729588],[-89.155506,13.729381],[-89.155435,13.729311],[-89.155435,13.729104],[-89.155363,13.729034],[-89.155292,13.728619],[-89.155079,13.728203],[-89.154723,13.727996],[-89.154723,13.727926],[-89.15515,13.727442],[-89.15515,13.727165],[-89.155221,13.727096],[-89.15515,13.726957],[-89.15515,13.72668],[-89.155008,13.726472],[-89.154936,13.726195],[-89.154723,13.725988],[-89.154723,13.725919],[-89.153833,13.725261],[-89.153762,13.725261],[-89.15241,13.726576],[-89.148993,13.727199],[-89.148779,13.727407],[-89.148423,13.727615],[-89.147961,13.728065],[-89.14789,13.728273],[-89.147569,13.728723],[-89.147285,13.728723],[-89.147213,13.728792],[-89.146644,13.728792],[-89.146466,13.728965],[-89.146466,13.729519],[-89.146359,13.729623],[-89.145719,13.729207],[-89.145042,13.72855],[-89.145114,13.726819],[-89.145185,13.726749],[-89.145185,13.726403],[-89.145256,13.726334],[-89.145256,13.726057],[-89.145327,13.725988],[-89.145256,13.724949],[-89.145327,13.72488],[-89.145398,13.724257],[-89.145469,13.724187],[-89.145398,13.723772],[-89.145042,13.723426],[-89.14522,13.723253],[-89.145932,13.723253],[-89.147071,13.72263],[-89.147498,13.72256],[-89.147747,13.722318],[-89.147747,13.722041],[-89.147818,13.721972],[-89.147747,13.721141],[-89.147676,13.721072],[-89.147676,13.720656],[-89.147605,13.720587],[-89.147605,13.720172],[-89.147534,13.720102],[-89.147534,13.719756],[-89.147463,13.719687],[-89.147463,13.719133],[-89.147391,13.719064],[-89.147391,13.718648],[-89.14732,13.718579],[-89.147249,13.717748],[-89.147356,13.717644],[-89.147996,13.717644],[-89.148068,13.717575],[-89.148423,13.717575],[-89.148495,13.717506],[-89.148922,13.717506],[-89.148993,13.717437],[-89.14942,13.717437],[-89.149491,13.717367],[-89.150345,13.717367],[-89.150416,13.717298]]]]}},{"type":"Feature","properties":{"zona":5,"lab":[13.754823,-89.167777]},"geometry":{"type":"MultiPolygon","coordinates":[[[[-89.170774,13.748387],[-89.170845,13.748456],[-89.170987,13.748456],[-89.171237,13.748699],[-89.171308,13.748906],[-89.171414,13.74901],[-89.171557,13.749149],[-89.171699,13.749149],[-89.171806,13.749253],[-89.171735,13.749391],[-89.171735,13.749599],[-89.171664,13.749668],[-89.171735,13.750291],[-89.171948,13.750637],[-89.172233,13.750845],[-89.172304,13.751399],[-89.172518,13.751884],[-89.172518,13.752438],[-89.172375,13.752645],[-89.172304,13.753407],[-89.172091,13.753684],[-89.172091,13.75403],[-89.171806,13.754376],[-89.171592,13.75493],[-89.171308,13.755277],[-89.171308,13.755761],[-89.171094,13.756177],[-89.171094,13.757423],[-89.171023,13.757561],[-89.17145,13.758185],[-89.17145,13.758323],[-89.171023,13.758808],[-89.171023,13.759846],[-89.170632,13.760296],[-89.170418,13.760435],[-89.16992,13.760573],[-89.169671,13.760747],[-89.169599,13.760885],[-89.169599,13.761231],[-89.169528,13.7613],[-89.169528,13.761785],[-89.169386,13.761993],[-89.169386,13.762616],[-89.169457,13.762685],[-89.169457,13.763031],[-89.169528,13.763101],[-89.169528,13.763516],[-89.169279,13.763828],[-89.169066,13.763828],[-89.168389,13.764209],[-89.168461,13.764416],[-89.168816,13.764693],[-89.169101,13.765039],[-89.169315,13.765386],[-89.169315,13.765524],[-89.168852,13.765836],[-89.167428,13.766182],[-89.16693,13.766459],[-89.166788,13.766459],[-89.166574,13.766597],[-89.166218,13.766667],[-89.166005,13.766805],[-89.165649,13.766874],[-89.165364,13.767013],[-89.16508,13.766667],[-89.165008,13.766667],[-89.16483,13.766493],[-89.16483,13.766424],[-89.164439,13.766113],[-89.164154,13.765974],[-89.164012,13.765974],[-89.163478,13.766493],[-89.163264,13.76684],[-89.163015,13.767082],[-89.162659,13.767082],[-89.162588,13.767013],[-89.162446,13.767013],[-89.162019,13.766736],[-89.161307,13.766043],[-89.160738,13.765974],[-89.160382,13.765766],[-89.160133,13.765455],[-89.160133,13.765178],[-89.16056,13.764555],[-89.161414,13.763724],[-89.161414,13.763308],[-89.161485,13.763239],[-89.161485,13.762962],[-89.161414,13.762893],[-89.161485,13.762824],[-89.161414,13.762685],[-89.161414,13.762408],[-89.160987,13.761647],[-89.160915,13.7613],[-89.160702,13.760816],[-89.160773,13.760539],[-89.161129,13.760123],[-89.161271,13.759846],[-89.161271,13.759708],[-89.161592,13.759396],[-89.161876,13.759396],[-89.162161,13.759535],[-89.162339,13.759708],[-89.162339,13.759846],[-89.162588,13.760019],[-89.163229,13.75995],[-89.163656,13.759743],[-89.164083,13.759396],[-89.164581,13.759258],[-89.164795,13.759119],[-89.164973,13.758946],[-89.165115,13.758669],[-89.165115,13.757838],[-89.165044,13.757769],[-89.165044,13.757561],[-89.16483,13.757146],[-89.164759,13.7568],[-89.164617,13.756592],[-89.164617,13.756454],[-89.164225,13.755934],[-89.164083,13.755934],[-89.163869,13.756142],[-89.163798,13.756142],[-89.163478,13.755761],[-89.163264,13.755415],[-89.163264,13.755277],[-89.163122,13.755069],[-89.163051,13.754723],[-89.16298,13.754653],[-89.163051,13.754238],[-89.163478,13.753407],[-89.163691,13.75313],[-89.163763,13.752853],[-89.163941,13.75268],[-89.164439,13.752472],[-89.164866,13.752195],[-89.165222,13.752126],[-89.165364,13.751988],[-89.165507,13.751918],[-89.16572,13.751918],[-89.165827,13.751814],[-89.165969,13.751538],[-89.165969,13.751261],[-89.166112,13.751053],[-89.166112,13.750776],[-89.16604,13.750707],[-89.16604,13.749807],[-89.166183,13.74953],[-89.166183,13.749253],[-89.166361,13.749079],[-89.166503,13.74901],[-89.166717,13.74901],[-89.167001,13.748872],[-89.167215,13.748872],[-89.167286,13.748803],[-89.1675,13.748803],[-89.167784,13.748664],[-89.168567,13.748664],[-89.168781,13.748872],[-89.168994,13.748872],[-89.169066,13.748941],[-89.169244,13.748699],[-89.169421,13.748595],[-89.169564,13.748595],[-89.169635,13.748526],[-89.170062,13.748595],[-89.170418,13.748456],[-89.170703,13.748456],[-89.170774,13.748387]]]]}},{"type":"Feature","properties":{"zona":6,"lab":[13.710748,-89.1687]},"geometry":{"type":"MultiPolygon","coordinates":[[[[-89.169493,13.70615],[-89.170133,13.70615],[-89.170204,13.70622],[-89.170703,13.70622],[-89.170845,13.706289],[-89.171094,13.7066],[-89.171094,13.70757],[-89.171165,13.707639],[-89.171165,13.708124],[-89.171308,13.70847],[-89.171486,13.708643],[-89.171628,13.708643],[-89.171699,13.708712],[-89.172625,13.708781],[-89.172696,13.708851],[-89.172838,13.708851],[-89.172945,13.708955],[-89.172375,13.710062],[-89.172375,13.710201],[-89.172162,13.710616],[-89.172162,13.710755],[-89.171664,13.711724],[-89.171094,13.712555],[-89.170738,13.713247],[-89.170738,13.713455],[-89.170667,13.713524],[-89.170667,13.714009],[-89.170525,13.714286],[-89.170525,13.714494],[-89.170382,13.71484],[-89.170382,13.715117],[-89.17024,13.715463],[-89.17024,13.71574],[-89.170169,13.715809],[-89.170169,13.716086],[-89.169991,13.716329],[-89.16992,13.716329],[-89.169742,13.716156],[-89.169671,13.716017],[-89.169671,13.715879],[-89.169599,13.715809],[-89.169599,13.715325],[-89.169315,13.714978],[-89.169244,13.714771],[-89.168781,13.714736],[-89.167713,13.713559],[-89.167571,13.713559],[-89.1675,13.71349],[-89.167001,13.71349],[-89.166432,13.713144],[-89.16572,13.713144],[-89.165435,13.713351],[-89.165151,13.713421],[-89.164724,13.713213],[-89.164368,13.713213],[-89.164297,13.713144],[-89.164012,13.713144],[-89.163941,13.713213],[-89.163798,13.713213],[-89.163727,13.713144],[-89.1633,13.713144],[-89.163229,13.713074],[-89.163015,13.713074],[-89.162517,13.712867],[-89.162019,13.712867],[-89.16177,13.712694],[-89.161983,13.712209],[-89.162161,13.712036],[-89.162517,13.711897],[-89.162624,13.711793],[-89.16298,13.711032],[-89.1633,13.71072],[-89.163514,13.710651],[-89.164297,13.709751],[-89.164439,13.709682],[-89.164652,13.709682],[-89.164724,13.709612],[-89.164937,13.709612],[-89.165293,13.709405],[-89.165435,13.709405],[-89.165542,13.709301],[-89.165613,13.709024],[-89.165364,13.708781],[-89.164937,13.708781],[-89.164546,13.708539],[-89.164546,13.708401],[-89.164688,13.708193],[-89.165008,13.707881],[-89.16508,13.707881],[-89.165578,13.707466],[-89.165791,13.707397],[-89.166218,13.707743],[-89.166361,13.707743],[-89.166432,13.707812],[-89.166645,13.707812],[-89.167001,13.707951],[-89.167642,13.707951],[-89.167891,13.707777],[-89.168033,13.707431],[-89.168389,13.707016],[-89.168389,13.706877],[-89.168532,13.7066],[-89.168923,13.706358],[-89.169279,13.706289],[-89.169493,13.70615]]]]}},{"type":"Feature","properties":{"zona":7,"lab":[13.723769,-89.166434]},"geometry":{"type":"MultiPolygon","coordinates":[[[[-89.165507,13.720483],[-89.16572,13.720483],[-89.165862,13.720622],[-89.166076,13.720483],[-89.166147,13.720552],[-89.166503,13.720622],[-89.16661,13.720725],[-89.16661,13.720933],[-89.166717,13.721037],[-89.167357,13.720968],[-89.167428,13.721037],[-89.167784,13.721037],[-89.167891,13.721141],[-89.167962,13.721279],[-89.167962,13.721556],[-89.168033,13.721626],[-89.168033,13.721764],[-89.167962,13.721833],[-89.167962,13.722041],[-89.168033,13.72218],[-89.168389,13.722456],[-89.168532,13.722733],[-89.16903,13.723287],[-89.16903,13.724395],[-89.169101,13.724464],[-89.169172,13.725226],[-89.169066,13.72533],[-89.168852,13.72533],[-89.168781,13.725261],[-89.16871,13.72533],[-89.168354,13.72533],[-89.168283,13.725399],[-89.168069,13.72533],[-89.167962,13.725434],[-89.16782,13.726057],[-89.167535,13.726472],[-89.167464,13.72668],[-89.167322,13.726819],[-89.16725,13.727234],[-89.167179,13.727303],[-89.167179,13.727511],[-89.167108,13.72758],[-89.167108,13.727857],[-89.167037,13.727926],[-89.166966,13.728827],[-89.166895,13.728896],[-89.166895,13.730073],[-89.167108,13.73035],[-89.167179,13.730488],[-89.167179,13.730696],[-89.16725,13.730765],[-89.16725,13.731665],[-89.167322,13.731735],[-89.167322,13.732358],[-89.16725,13.732427],[-89.16725,13.732773],[-89.167179,13.732843],[-89.167179,13.733466],[-89.16725,13.733535],[-89.167393,13.73402],[-89.167286,13.734124],[-89.167073,13.734193],[-89.166895,13.73402],[-89.166895,13.733881],[-89.166717,13.733777],[-89.16629,13.733985],[-89.165862,13.733985],[-89.165791,13.734054],[-89.165649,13.734054],[-89.165542,13.73395],[-89.165471,13.733673],[-89.165364,13.733639],[-89.165293,13.733708],[-89.16508,13.733708],[-89.164439,13.734124],[-89.164297,13.734124],[-89.164225,13.734193],[-89.163798,13.734193],[-89.163514,13.734331],[-89.162909,13.733812],[-89.162588,13.733431],[-89.162161,13.733293],[-89.16177,13.732843],[-89.161698,13.732704],[-89.161698,13.732289],[-89.16177,13.73215],[-89.161592,13.731908],[-89.161449,13.731908],[-89.161343,13.731804],[-89.161343,13.730835],[-89.161521,13.730661],[-89.161805,13.731008],[-89.16209,13.731008],[-89.162517,13.731285],[-89.162731,13.731285],[-89.163086,13.731423],[-89.163371,13.731077],[-89.164332,13.731042],[-89.16419,13.730696],[-89.16419,13.730488],[-89.163869,13.730385],[-89.163763,13.730281],[-89.163763,13.729865],[-89.163869,13.729761],[-89.164154,13.729761],[-89.164546,13.72945],[-89.165044,13.72848],[-89.165044,13.728134],[-89.1654,13.727719],[-89.165115,13.727303],[-89.165044,13.726957],[-89.16483,13.726749],[-89.16483,13.726611],[-89.164546,13.726126],[-89.164546,13.725988],[-89.16419,13.725295],[-89.16419,13.725018],[-89.164332,13.724741],[-89.164261,13.724672],[-89.164261,13.724395],[-89.164047,13.724187],[-89.164047,13.723703],[-89.164119,13.723634],[-89.164119,13.722387],[-89.164047,13.722318],[-89.164047,13.721972],[-89.163905,13.721764],[-89.163905,13.721072],[-89.164047,13.720864],[-89.164047,13.720725],[-89.164154,13.720622],[-89.164439,13.72076],[-89.165293,13.72076],[-89.165507,13.720483]]]]}},{"type":"Feature","properties":{"zona":8,"lab":[13.729617,-89.169909]},"geometry":{"type":"MultiPolygon","coordinates":[[[[-89.174689,13.724291],[-89.174902,13.724361],[-89.175009,13.724464],[-89.175009,13.724741],[-89.174938,13.724811],[-89.174938,13.72668],[-89.175151,13.726957],[-89.175009,13.727096],[-89.174902,13.727407],[-89.17476,13.727546],[-89.174618,13.727546],[-89.17444,13.72765],[-89.174368,13.727788],[-89.174368,13.728134],[-89.174084,13.728342],[-89.174084,13.728619],[-89.174653,13.729104],[-89.174653,13.729311],[-89.174368,13.729519],[-89.174297,13.730281],[-89.174689,13.730661],[-89.175187,13.730731],[-89.175614,13.731285],[-89.176184,13.731631],[-89.176468,13.7317],[-89.176931,13.73215],[-89.176789,13.732427],[-89.176789,13.732704],[-89.176646,13.73305],[-89.176646,13.733258],[-89.176575,13.733327],[-89.176504,13.734089],[-89.176433,13.734158],[-89.176575,13.735681],[-89.177144,13.736374],[-89.177144,13.736443],[-89.177429,13.73672],[-89.177785,13.737412],[-89.178141,13.737897],[-89.17807,13.738036],[-89.177394,13.738693],[-89.176895,13.738693],[-89.176824,13.738624],[-89.176753,13.738693],[-89.17597,13.738693],[-89.175899,13.738763],[-89.175472,13.738763],[-89.175258,13.738901],[-89.175045,13.738901],[-89.174262,13.739386],[-89.173977,13.739732],[-89.173479,13.73994],[-89.173265,13.740217],[-89.173123,13.740217],[-89.173052,13.740286],[-89.172696,13.740286],[-89.172518,13.740113],[-89.172518,13.739836],[-89.172731,13.73949],[-89.172731,13.739143],[-89.172874,13.738936],[-89.172874,13.73859],[-89.172731,13.738382],[-89.172731,13.737897],[-89.172874,13.737689],[-89.172945,13.737274],[-89.173016,13.737205],[-89.172874,13.736928],[-89.172874,13.736305],[-89.172945,13.736235],[-89.172874,13.735681],[-89.173016,13.735404],[-89.173016,13.735128],[-89.172838,13.734885],[-89.172625,13.734816],[-89.172269,13.73447],[-89.171913,13.734262],[-89.17177,13.734262],[-89.171664,13.734158],[-89.171664,13.733881],[-89.171735,13.733812],[-89.171699,13.733293],[-89.171486,13.733293],[-89.171308,13.733466],[-89.171237,13.733673],[-89.17113,13.733777],[-89.171059,13.733708],[-89.170845,13.733708],[-89.170276,13.733362],[-89.170098,13.733189],[-89.170098,13.732843],[-89.169849,13.732462],[-89.169635,13.732462],[-89.169493,13.7326],[-89.16871,13.732669],[-89.168389,13.73312],[-89.168318,13.733327],[-89.167962,13.733604],[-89.167678,13.734089],[-89.1675,13.734262],[-89.167393,13.734158],[-89.167393,13.73395],[-89.167179,13.733466],[-89.167179,13.732843],[-89.16725,13.732773],[-89.16725,13.732427],[-89.167322,13.732358],[-89.167322,13.731735],[-89.16725,13.731665],[-89.16725,13.730765],[-89.167179,13.730696],[-89.167179,13.730488],[-89.167108,13.73035],[-89.166895,13.730073],[-89.166895,13.728896],[-89.166966,13.728827],[-89.166966,13.728342],[-89.167037,13.728273],[-89.167037,13.727926],[-89.167108,13.727857],[-89.167108,13.72758],[-89.16725,13.727234],[-89.16725,13.727026],[-89.167322,13.726957],[-89.167322,13.726819],[-89.167464,13.72668],[-89.167535,13.726472],[-89.16782,13.726057],[-89.167891,13.725642],[-89.167962,13.725572],[-89.167962,13.725434],[-89.168069,13.72533],[-89.168283,13.725399],[-89.168354,13.72533],[-89.16871,13.72533],[-89.168781,13.725261],[-89.168852,13.72533],[-89.169066,13.72533],[-89.169137,13.725261],[-89.170347,13.725261],[-89.170667,13.725642],[-89.170667,13.726334],[-89.170952,13.726611],[-89.170952,13.72668],[-89.171699,13.727407],[-89.172055,13.727615],[-89.172269,13.727823],[-89.172482,13.727823],[-89.173158,13.727234],[-89.173158,13.726611],[-89.17323,13.726542],[-89.17323,13.726403],[-89.173443,13.726126],[-89.173301,13.725642],[-89.173728,13.724811],[-89.173906,13.724638],[-89.174119,13.724638],[-89.174689,13.724291]]]]}},{"type":"Feature","properties":{"zona":9,"lab":[13.769271,-89.167032]},"geometry":{"type":"MultiPolygon","coordinates":[[[[-89.16935,13.76549],[-89.169813,13.766078],[-89.169813,13.766217],[-89.169884,13.766286],[-89.169884,13.766701],[-89.169813,13.76677],[-89.169813,13.766909],[-89.169386,13.767463],[-89.169386,13.767878],[-89.169457,13.767948],[-89.169457,13.768155],[-89.169742,13.768432],[-89.169742,13.768501],[-89.170026,13.768709],[-89.170026,13.768848],[-89.170169,13.768986],[-89.170382,13.769402],[-89.170311,13.769471],[-89.170311,13.769609],[-89.169813,13.770094],[-89.169884,13.770509],[-89.170133,13.770752],[-89.170347,13.770821],[-89.170454,13.770925],[-89.170382,13.771894],[-89.17024,13.77224],[-89.169884,13.772725],[-89.169884,13.772864],[-89.169813,13.772933],[-89.169813,13.77321],[-89.169955,13.773487],[-89.170204,13.77366],[-89.170632,13.773729],[-89.170703,13.773798],[-89.170916,13.773798],[-89.171414,13.774006],[-89.171913,13.774075],[-89.172233,13.774318],[-89.172304,13.774664],[-89.17266,13.775149],[-89.172874,13.775772],[-89.173585,13.776395],[-89.173585,13.776533],[-89.173728,13.776741],[-89.17387,13.777226],[-89.174582,13.778126],[-89.174724,13.77868],[-89.175151,13.779303],[-89.175365,13.780411],[-89.175579,13.780826],[-89.175579,13.781172],[-89.175472,13.781276],[-89.174831,13.781346],[-89.174475,13.781623],[-89.174262,13.781623],[-89.173977,13.781415],[-89.173692,13.781415],[-89.17355,13.781484],[-89.173087,13.781934],[-89.173087,13.782003],[-89.172803,13.78228],[-89.172731,13.782488],[-89.172553,13.782661],[-89.172375,13.782488],[-89.172304,13.782211],[-89.171486,13.780584],[-89.171308,13.780688],[-89.171308,13.781103],[-89.171237,13.781172],[-89.171237,13.781311],[-89.170987,13.781553],[-89.17056,13.78183],[-89.170276,13.78183],[-89.170169,13.781726],[-89.170169,13.781103],[-89.17024,13.781034],[-89.17024,13.780688],[-89.169955,13.780203],[-89.169599,13.779788],[-89.169599,13.77958],[-89.169528,13.779511],[-89.169528,13.778818],[-89.169457,13.778749],[-89.169457,13.778057],[-89.168816,13.777434],[-89.168816,13.777295],[-89.169101,13.777018],[-89.169066,13.776776],[-89.168923,13.776706],[-89.168283,13.776706],[-89.167927,13.776499],[-89.167784,13.776499],[-89.167357,13.776153],[-89.167215,13.776083],[-89.167001,13.776083],[-89.166681,13.776603],[-89.166432,13.776845],[-89.16629,13.776845],[-89.165542,13.776256],[-89.164688,13.775287],[-89.164617,13.773764],[-89.164688,13.773695],[-89.164688,13.773556],[-89.16483,13.773418],[-89.16483,13.773141],[-89.164688,13.772864],[-89.164688,13.772725],[-89.164866,13.772552],[-89.165435,13.772552],[-89.165578,13.772483],[-89.165827,13.77224],[-89.165898,13.771963],[-89.165222,13.771236],[-89.164083,13.771236],[-89.163976,13.771133],[-89.163976,13.770509],[-89.163905,13.77044],[-89.163905,13.770025],[-89.163834,13.769956],[-89.163834,13.769263],[-89.163941,13.769159],[-89.164154,13.76909],[-89.164332,13.768848],[-89.164332,13.768709],[-89.16419,13.768571],[-89.164119,13.768294],[-89.164546,13.767809],[-89.164546,13.76774],[-89.165293,13.767013],[-89.166005,13.766805],[-89.166218,13.766667],[-89.166574,13.766597],[-89.166788,13.766459],[-89.16693,13.766459],[-89.167428,13.766182],[-89.168852,13.765836],[-89.16935,13.76549]]]]}},{"type":"Feature","properties":{"zona":10,"lab":[13.735314,-89.151948]},"geometry":{"type":"MultiPolygon","coordinates":[[[[-89.153762,13.725261],[-89.154616,13.725815],[-89.155008,13.726334],[-89.155008,13.726472],[-89.15515,13.72668],[-89.15515,13.726957],[-89.155221,13.727096],[-89.15515,13.727165],[-89.15515,13.727442],[-89.155079,13.72758],[-89.154723,13.727926],[-89.154723,13.727996],[-89.155079,13.728203],[-89.155292,13.728619],[-89.155363,13.729034],[-89.155435,13.729104],[-89.155435,13.729311],[-89.155506,13.729381],[-89.155506,13.729588],[-89.155577,13.729658],[-89.155577,13.729796],[-89.155684,13.7299],[-89.15725,13.7299],[-89.157321,13.729831],[-89.157748,13.729761],[-89.157962,13.729623],[-89.158246,13.729623],[-89.158353,13.729727],[-89.158994,13.731042],[-89.159243,13.731215],[-89.159599,13.731215],[-89.15967,13.731146],[-89.160168,13.731077],[-89.160239,13.731008],[-89.160453,13.731008],[-89.160738,13.730869],[-89.161236,13.7308],[-89.161343,13.730904],[-89.161343,13.731804],[-89.161449,13.731908],[-89.161592,13.731908],[-89.16177,13.73215],[-89.161698,13.732289],[-89.161698,13.732704],[-89.16177,13.732843],[-89.162161,13.733293],[-89.162588,13.733431],[-89.162909,13.733812],[-89.163549,13.734366],[-89.163549,13.734712],[-89.163478,13.734851],[-89.162695,13.735404],[-89.16241,13.73582],[-89.162197,13.736374],[-89.161485,13.737412],[-89.161485,13.737551],[-89.161414,13.73762],[-89.161414,13.737897],[-89.161485,13.737966],[-89.161556,13.738382],[-89.16177,13.738659],[-89.16177,13.738866],[-89.161698,13.738936],[-89.161556,13.73949],[-89.161414,13.739628],[-89.1612,13.740113],[-89.160987,13.74039],[-89.160773,13.741636],[-89.160666,13.74174],[-89.16031,13.74174],[-89.160239,13.741809],[-89.159955,13.741809],[-89.159883,13.741878],[-89.159812,13.741809],[-89.159456,13.741809],[-89.159385,13.74174],[-89.1591,13.74174],[-89.159029,13.741671],[-89.158816,13.74174],[-89.158745,13.741671],[-89.157463,13.741671],[-89.157392,13.741602],[-89.156823,13.741602],[-89.156574,13.741913],[-89.156467,13.741948],[-89.156111,13.742294],[-89.155684,13.741809],[-89.15547,13.741809],[-89.155399,13.74174],[-89.153762,13.74174],[-89.153691,13.741809],[-89.153264,13.741809],[-89.153192,13.741878],[-89.153121,13.741809],[-89.152908,13.741809],[-89.152694,13.741948],[-89.152481,13.741948],[-89.15241,13.742017],[-89.151271,13.742017],[-89.150844,13.742225],[-89.150488,13.742294],[-89.150274,13.742432],[-89.149847,13.742432],[-89.149562,13.742294],[-89.149206,13.742294],[-89.149135,13.742225],[-89.148566,13.742225],[-89.146929,13.743056],[-89.146644,13.743056],[-89.146573,13.742986],[-89.146359,13.742986],[-89.146075,13.742848],[-89.145861,13.742848],[-89.145754,13.742744],[-89.145754,13.742536],[-89.145541,13.742329],[-89.145541,13.742121],[-89.145754,13.741775],[-89.145754,13.741082],[-89.145612,13.740736],[-89.145363,13.740424],[-89.144864,13.740286],[-89.144615,13.740113],[-89.144687,13.739697],[-89.144509,13.739524],[-89.144437,13.739524],[-89.144259,13.739282],[-89.144259,13.738936],[-89.144188,13.738866],[-89.144188,13.738451],[-89.144117,13.738313],[-89.14401,13.738209],[-89.143085,13.738209],[-89.142978,13.738105],[-89.143227,13.737863],[-89.143797,13.737724],[-89.143904,13.737551],[-89.143904,13.737412],[-89.144188,13.737135],[-89.144188,13.736859],[-89.144046,13.736512],[-89.144117,13.735889],[-89.144259,13.735612],[-89.144259,13.735474],[-89.144402,13.735266],[-89.144473,13.734643],[-89.144615,13.734504],[-89.144758,13.734158],[-89.144829,13.733604],[-89.144971,13.733327],[-89.144971,13.73312],[-89.145185,13.732635],[-89.145327,13.732081],[-89.145576,13.731908],[-89.14579,13.731908],[-89.146288,13.731631],[-89.146502,13.731631],[-89.14668,13.731389],[-89.14668,13.730904],[-89.146608,13.730835],[-89.146608,13.730696],[-89.14668,13.730627],[-89.14668,13.730419],[-89.146608,13.73035],[-89.146608,13.729796],[-89.146395,13.729658],[-89.146466,13.729519],[-89.146466,13.728965],[-89.146644,13.728792],[-89.147213,13.728792],[-89.147285,13.728723],[-89.147569,13.728723],[-89.14789,13.728273],[-89.147961,13.728065],[-89.148423,13.727615],[-89.148779,13.727407],[-89.148993,13.727199],[-89.15241,13.726576],[-89.153762,13.725261]]]]}},{"type":"Feature","properties":{"zona":11,"lab":[13.753253,-89.14851]},"geometry":{"type":"MultiPolygon","coordinates":[[[[-89.156823,13.741602],[-89.157392,13.741602],[-89.157463,13.741671],[-89.158745,13.741671],[-89.158816,13.74174],[-89.159029,13.741671],[-89.1591,13.74174],[-89.159385,13.74174],[-89.159456,13.741809],[-89.159812,13.741809],[-89.159883,13.741878],[-89.159955,13.741809],[-89.160239,13.741809],[-89.16031,13.74174],[-89.160595,13.74174],[-89.160702,13.741844],[-89.160702,13.742052],[-89.160631,13.742121],[-89.160631,13.742813],[-89.160809,13.743056],[-89.160951,13.743056],[-89.161165,13.742779],[-89.16209,13.742848],[-89.163691,13.744198],[-89.163691,13.744613],[-89.16362,13.744683],[-89.16362,13.745721],[-89.164119,13.746621],[-89.16419,13.747037],[-89.164261,13.747106],[-89.164261,13.747245],[-89.164332,13.747314],[-89.164474,13.747799],[-89.164652,13.747972],[-89.164866,13.747972],[-89.164937,13.748041],[-89.16508,13.748041],[-89.165151,13.747972],[-89.166147,13.747972],[-89.16629,13.748041],[-89.166468,13.748283],[-89.166396,13.748699],[-89.166325,13.748768],[-89.166325,13.749045],[-89.166183,13.749253],[-89.166183,13.74953],[-89.16604,13.749807],[-89.16604,13.750707],[-89.166112,13.750776],[-89.166112,13.751053],[-89.165934,13.751226],[-89.165862,13.751226],[-89.16572,13.751087],[-89.165008,13.750741],[-89.164581,13.750672],[-89.163869,13.750395],[-89.162731,13.750464],[-89.162446,13.750326],[-89.162019,13.750257],[-89.161521,13.750049],[-89.161307,13.750049],[-89.160595,13.749772],[-89.160097,13.749772],[-89.160026,13.749841],[-89.158602,13.749841],[-89.158531,13.74991],[-89.158033,13.74998],[-89.157784,13.750153],[-89.157997,13.750637],[-89.158139,13.750776],[-89.158139,13.751261],[-89.158068,13.75133],[-89.158068,13.751676],[-89.157997,13.751814],[-89.158353,13.752645],[-89.158353,13.753338],[-89.158282,13.753407],[-89.158282,13.753615],[-89.158139,13.753892],[-89.158139,13.754099],[-89.158068,13.754169],[-89.158068,13.754653],[-89.157997,13.754723],[-89.157926,13.755623],[-89.157855,13.755692],[-89.157784,13.756177],[-89.157712,13.756246],[-89.157712,13.756454],[-89.15757,13.756731],[-89.157499,13.757284],[-89.157357,13.757561],[-89.157357,13.757838],[-89.157285,13.757908],[-89.157285,13.760193],[-89.157214,13.760262],[-89.157285,13.760677],[-89.156751,13.761335],[-89.155897,13.761751],[-89.155613,13.761751],[-89.155541,13.76182],[-89.155257,13.76182],[-89.155186,13.761889],[-89.154545,13.761958],[-89.154474,13.762027],[-89.154189,13.762027],[-89.153798,13.762339],[-89.153477,13.76272],[-89.153335,13.76272],[-89.153264,13.762651],[-89.152908,13.762651],[-89.152765,13.762512],[-89.152623,13.762512],[-89.152303,13.763447],[-89.151662,13.764139],[-89.151662,13.764209],[-89.151093,13.764832],[-89.151093,13.764901],[-89.150416,13.765559],[-89.149918,13.765836],[-89.14974,13.766009],[-89.149313,13.766909],[-89.149206,13.767013],[-89.148281,13.767082],[-89.147925,13.766944],[-89.147569,13.766944],[-89.147285,13.766805],[-89.147071,13.766805],[-89.147,13.766736],[-89.14643,13.766736],[-89.146075,13.766528],[-89.145897,13.766563],[-89.145897,13.766701],[-89.147107,13.767809],[-89.147249,13.768086],[-89.14732,13.768432],[-89.147676,13.769125],[-89.148032,13.76954],[-89.148032,13.769609],[-89.148673,13.770094],[-89.148744,13.770232],[-89.148744,13.770786],[-89.148815,13.770856],[-89.148815,13.770994],[-89.149028,13.771271],[-89.149028,13.77141],[-89.14974,13.772794],[-89.150061,13.773106],[-89.150559,13.773314],[-89.150737,13.773487],[-89.150879,13.774248],[-89.151271,13.774491],[-89.151662,13.774941],[-89.151662,13.775149],[-89.151591,13.775218],[-89.151591,13.775702],[-89.151164,13.776741],[-89.151164,13.777087],[-89.151093,13.777157],[-89.151022,13.777572],[-89.150879,13.77778],[-89.150879,13.778057],[-89.150772,13.778161],[-89.150488,13.778161],[-89.150416,13.778091],[-89.149634,13.778091],[-89.149562,13.778022],[-89.14821,13.778022],[-89.148139,13.778091],[-89.147427,13.778091],[-89.14732,13.778195],[-89.147391,13.779026],[-89.146644,13.779822],[-89.146359,13.779961],[-89.145932,13.780307],[-89.145719,13.780307],[-89.145434,13.780099],[-89.145078,13.780099],[-89.145007,13.780169],[-89.144509,13.780238],[-89.144331,13.780065],[-89.144259,13.779649],[-89.144188,13.77958],[-89.144188,13.779372],[-89.144117,13.779303],[-89.144117,13.778818],[-89.144188,13.778749],[-89.144188,13.778541],[-89.144259,13.778403],[-89.144473,13.778195],[-89.144473,13.778057],[-89.144224,13.778022],[-89.1428,13.778714],[-89.142551,13.778957],[-89.14248,13.779165],[-89.142338,13.779303],[-89.142195,13.779788],[-89.141946,13.780169],[-89.141697,13.779788],[-89.141555,13.779234],[-89.141412,13.779026],[-89.141341,13.77868],[-89.141199,13.778472],[-89.141128,13.778126],[-89.141056,13.778057],[-89.141056,13.775633],[-89.141128,13.775564],[-89.141128,13.775218],[-89.141199,13.775149],[-89.141199,13.774179],[-89.141128,13.77411],[-89.141128,13.773625],[-89.141056,13.773556],[-89.141056,13.773348],[-89.140843,13.773002],[-89.140843,13.772794],[-89.140772,13.772725],[-89.140772,13.772102],[-89.1407,13.772033],[-89.140629,13.771548],[-89.140487,13.771202],[-89.140487,13.770786],[-89.140558,13.770717],[-89.140558,13.77044],[-89.140629,13.770371],[-89.140629,13.769817],[-89.140345,13.769332],[-89.140273,13.768778],[-89.140131,13.768501],[-89.140131,13.768294],[-89.139917,13.767878],[-89.138779,13.76684],[-89.138707,13.766632],[-89.138529,13.766459],[-89.138316,13.76639],[-89.138067,13.766078],[-89.138138,13.765801],[-89.137853,13.765455],[-89.137924,13.765109],[-89.137996,13.765039],[-89.137996,13.764624],[-89.137782,13.764347],[-89.137782,13.764209],[-89.137711,13.764139],[-89.137711,13.764001],[-89.137782,13.763932],[-89.137782,13.763724],[-89.137711,13.763655],[-89.137889,13.763482],[-89.138601,13.763482],[-89.13885,13.763308],[-89.139063,13.762893],[-89.139063,13.762616],[-89.139134,13.762547],[-89.139134,13.762408],[-89.139277,13.762201],[-89.139277,13.762062],[-89.139134,13.761924],[-89.139134,13.761647],[-89.139063,13.761577],[-89.138992,13.759916],[-89.138921,13.759846],[-89.138921,13.759569],[-89.138636,13.758877],[-89.138636,13.758254],[-89.138743,13.75815],[-89.139312,13.75815],[-89.139419,13.757977],[-89.139419,13.757561],[-89.139312,13.757458],[-89.13917,13.757388],[-89.138743,13.757388],[-89.138636,13.757284],[-89.138707,13.756869],[-89.13885,13.756592],[-89.13885,13.755692],[-89.138921,13.755623],[-89.138921,13.754307],[-89.13885,13.754238],[-89.13885,13.753684],[-89.138921,13.753615],[-89.138921,13.752438],[-89.13885,13.752368],[-89.13885,13.751468],[-89.138779,13.751399],[-89.138779,13.750914],[-89.13885,13.750845],[-89.13885,13.750291],[-89.138921,13.750222],[-89.138992,13.749807],[-89.139063,13.749737],[-89.139063,13.748837],[-89.138921,13.748491],[-89.138921,13.748214],[-89.138814,13.74811],[-89.138316,13.747902],[-89.138174,13.747902],[-89.13796,13.747764],[-89.137818,13.747764],[-89.13764,13.747591],[-89.138031,13.74721],[-89.138102,13.74721],[-89.138458,13.746864],[-89.138529,13.746864],[-89.13885,13.746483],[-89.138779,13.746414],[-89.138779,13.745652],[-89.138707,13.745583],[-89.138707,13.74489],[-89.138636,13.744821],[-89.138636,13.744198],[-89.138565,13.744129],[-89.138565,13.743852],[-89.138672,13.743748],[-89.138743,13.743817],[-89.138957,13.743817],[-89.139455,13.744025],[-89.140309,13.744025],[-89.14038,13.744094],[-89.14159,13.744094],[-89.141661,13.744025],[-89.14401,13.744025],[-89.144081,13.743956],[-89.144224,13.743956],[-89.14458,13.74354],[-89.144651,13.74354],[-89.144936,13.743263],[-89.145505,13.742986],[-89.145719,13.742779],[-89.146288,13.742917],[-89.146359,13.742986],[-89.146573,13.742986],[-89.146644,13.743056],[-89.146929,13.743056],[-89.148566,13.742225],[-89.149135,13.742225],[-89.149206,13.742294],[-89.149562,13.742294],[-89.149847,13.742432],[-89.150274,13.742432],[-89.150488,13.742294],[-89.150844,13.742225],[-89.151271,13.742017],[-89.15241,13.742017],[-89.152481,13.741948],[-89.152694,13.741948],[-89.152908,13.741809],[-89.153121,13.741809],[-89.153192,13.741878],[-89.153264,13.741809],[-89.153691,13.741809],[-89.153762,13.74174],[-89.155399,13.74174],[-89.15547,13.741809],[-89.155684,13.741809],[-89.156111,13.742294],[-89.156467,13.741948],[-89.156574,13.741913],[-89.156823,13.741602]]]]}},{"type":"Feature","properties":{"zona":12,"lab":[13.714329,-89.172478]},"geometry":{"type":"MultiPolygon","coordinates":[[[[-89.176184,13.708435],[-89.176361,13.708678],[-89.17629,13.708747],[-89.17629,13.708885],[-89.175828,13.709266],[-89.175258,13.709543],[-89.174902,13.709889],[-89.17476,13.709889],[-89.174511,13.710132],[-89.174511,13.710547],[-89.174582,13.710616],[-89.174582,13.710824],[-89.174511,13.710893],[-89.174511,13.711101],[-89.174368,13.711309],[-89.174297,13.711863],[-89.174368,13.711932],[-89.174368,13.71207],[-89.174653,13.712347],[-89.174724,13.712624],[-89.174368,13.712832],[-89.174368,13.713317],[-89.17444,13.713386],[-89.17444,13.713663],[-89.174297,13.713801],[-89.174297,13.714078],[-89.174582,13.714425],[-89.174582,13.714771],[-89.174511,13.71484],[-89.174511,13.714978],[-89.174582,13.715048],[-89.174582,13.715532],[-89.174368,13.715671],[-89.174297,13.715809],[-89.174297,13.716017],[-89.174191,13.716121],[-89.174048,13.716121],[-89.173763,13.716259],[-89.173123,13.716259],[-89.173052,13.716329],[-89.172767,13.716329],[-89.172696,13.716398],[-89.172553,13.716398],[-89.17234,13.71619],[-89.17177,13.716052],[-89.171664,13.716156],[-89.171592,13.716363],[-89.171414,13.716536],[-89.171343,13.716467],[-89.170845,13.716467],[-89.170774,13.716398],[-89.170204,13.716398],[-89.170098,13.716294],[-89.170098,13.716156],[-89.170169,13.716086],[-89.170169,13.715809],[-89.17024,13.71574],[-89.17024,13.715463],[-89.170382,13.715117],[-89.170382,13.71484],[-89.170525,13.714494],[-89.170525,13.714286],[-89.170667,13.714009],[-89.170667,13.713524],[-89.170738,13.713455],[-89.170738,13.713247],[-89.171094,13.712555],[-89.171664,13.711724],[-89.172162,13.710755],[-89.172162,13.710616],[-89.172304,13.710409],[-89.172375,13.710062],[-89.17266,13.709578],[-89.17266,13.709439],[-89.172874,13.709024],[-89.173052,13.708851],[-89.173621,13.708851],[-89.173692,13.70892],[-89.174404,13.70892],[-89.174475,13.708851],[-89.174831,13.708851],[-89.174902,13.708781],[-89.175116,13.708781],[-89.175401,13.708643],[-89.175828,13.708574],[-89.175899,13.708505],[-89.176112,13.708505],[-89.176184,13.708435]]]]}},{"type":"Feature","properties":{"zona":13,"lab":[13.788882,-89.151006]},"geometry":{"type":"MultiPolygon","coordinates":[[[[-89.144224,13.778022],[-89.144366,13.778022],[-89.144473,13.778126],[-89.144188,13.778541],[-89.144188,13.778749],[-89.144117,13.778818],[-89.144117,13.779303],[-89.144188,13.779372],[-89.144188,13.77958],[-89.144259,13.779649],[-89.144259,13.779857],[-89.144402,13.780203],[-89.144651,13.780238],[-89.144722,13.780169],[-89.145007,13.780169],[-89.145078,13.780099],[-89.145434,13.780099],[-89.145719,13.780307],[-89.145932,13.780307],[-89.146359,13.779961],[-89.146644,13.779822],[-89.147391,13.779026],[-89.14732,13.778195],[-89.147427,13.778091],[-89.148139,13.778091],[-89.14821,13.778022],[-89.149562,13.778022],[-89.149634,13.778091],[-89.150416,13.778091],[-89.150488,13.778161],[-89.150844,13.778161],[-89.150986,13.77823],[-89.151306,13.778541],[-89.151164,13.779026],[-89.151093,13.779095],[-89.151093,13.779303],[-89.151342,13.779476],[-89.15184,13.779407],[-89.152587,13.780272],[-89.153015,13.780896],[-89.153406,13.781138],[-89.153548,13.781138],[-89.153726,13.781311],[-89.153798,13.781726],[-89.153975,13.7819],[-89.15426,13.7819],[-89.154367,13.782003],[-89.154367,13.782557],[-89.15458,13.782973],[-89.154509,13.783596],[-89.155114,13.783631],[-89.155186,13.783561],[-89.155399,13.783561],[-89.155755,13.783423],[-89.156787,13.784565],[-89.157357,13.785604],[-89.157357,13.785742],[-89.157534,13.785915],[-89.157677,13.785915],[-89.158531,13.786331],[-89.159029,13.786331],[-89.1591,13.786262],[-89.159527,13.786262],[-89.159599,13.786192],[-89.160097,13.786192],[-89.160239,13.786123],[-89.16031,13.786192],[-89.161022,13.786192],[-89.161093,13.786262],[-89.161948,13.786262],[-89.162019,13.786331],[-89.162588,13.7864],[-89.162659,13.786469],[-89.162802,13.786469],[-89.162873,13.7864],[-89.1633,13.7864],[-89.163371,13.786331],[-89.163656,13.786331],[-89.164012,13.786192],[-89.164297,13.786192],[-89.164368,13.786123],[-89.164937,13.786054],[-89.166147,13.785015],[-89.16629,13.785015],[-89.166503,13.785292],[-89.167001,13.7855],[-89.16725,13.785742],[-89.167322,13.786019],[-89.166966,13.786712],[-89.166752,13.786989],[-89.166752,13.787266],[-89.166681,13.787335],[-89.166681,13.787612],[-89.166966,13.788027],[-89.166966,13.788304],[-89.167037,13.788374],[-89.167037,13.788789],[-89.166966,13.788858],[-89.167037,13.791143],[-89.16725,13.79142],[-89.16508,13.793324],[-89.165008,13.793324],[-89.164795,13.793532],[-89.164581,13.793601],[-89.164403,13.793774],[-89.164332,13.793982],[-89.16419,13.79412],[-89.164119,13.794328],[-89.163834,13.794744],[-89.163834,13.795021],[-89.163763,13.79509],[-89.163763,13.795228],[-89.163478,13.795782],[-89.163051,13.796405],[-89.162802,13.796648],[-89.162731,13.796648],[-89.162375,13.796994],[-89.162303,13.796994],[-89.161876,13.797409],[-89.161805,13.797409],[-89.161271,13.797929],[-89.161129,13.798136],[-89.161129,13.798483],[-89.1612,13.798552],[-89.1612,13.79869],[-89.161093,13.798794],[-89.160809,13.798933],[-89.160666,13.798933],[-89.160453,13.799071],[-89.160239,13.799071],[-89.159029,13.798033],[-89.158033,13.797548],[-89.157321,13.797063],[-89.15668,13.796786],[-89.155399,13.796786],[-89.154901,13.796994],[-89.153975,13.796925],[-89.153904,13.796855],[-89.153121,13.796855],[-89.152908,13.796717],[-89.152765,13.796717],[-89.152623,13.796579],[-89.152196,13.796371],[-89.152054,13.796371],[-89.15184,13.796232],[-89.151698,13.796232],[-89.151413,13.796094],[-89.150772,13.79554],[-89.149918,13.795124],[-89.148779,13.795124],[-89.148495,13.795263],[-89.148139,13.795332],[-89.147712,13.795609],[-89.147213,13.795748],[-89.147142,13.795817],[-89.146644,13.795817],[-89.14611,13.795436],[-89.146039,13.795021],[-89.145968,13.794951],[-89.145897,13.794605],[-89.145825,13.794536],[-89.145825,13.794328],[-89.145683,13.794051],[-89.145683,13.793567],[-89.145612,13.793497],[-89.145612,13.79329],[-89.145469,13.793013],[-89.145469,13.792805],[-89.145327,13.792666],[-89.145114,13.792251],[-89.143619,13.790728],[-89.143476,13.790451],[-89.143476,13.790312],[-89.143334,13.790105],[-89.144046,13.789481],[-89.144046,13.789066],[-89.144117,13.788997],[-89.144117,13.788304],[-89.144758,13.78775],[-89.144758,13.787404],[-89.144473,13.786919],[-89.144473,13.786781],[-89.143975,13.785812],[-89.143975,13.784842],[-89.143904,13.784704],[-89.143726,13.7846],[-89.143299,13.7846],[-89.143121,13.784427],[-89.142836,13.784011],[-89.142765,13.783804],[-89.142622,13.783665],[-89.142622,13.783527],[-89.142907,13.78325],[-89.142978,13.783042],[-89.142836,13.782765],[-89.142836,13.782627],[-89.142693,13.782419],[-89.142622,13.782073],[-89.14248,13.781865],[-89.142338,13.781311],[-89.142195,13.781103],[-89.142053,13.780549],[-89.141911,13.780342],[-89.142195,13.779788],[-89.142338,13.779303],[-89.14248,13.779165],[-89.142551,13.778957],[-89.1428,13.778714],[-89.144224,13.778022]]]]}},{"type":"Feature","properties":{"zona":14,"lab":[13.776372,-89.158149]},"geometry":{"type":"MultiPolygon","coordinates":[[[[-89.160097,13.749772],[-89.160595,13.749772],[-89.161307,13.750049],[-89.161521,13.750049],[-89.162019,13.750257],[-89.162446,13.750326],[-89.162731,13.750464],[-89.163869,13.750395],[-89.164581,13.750672],[-89.165008,13.750741],[-89.16572,13.751087],[-89.165969,13.75133],[-89.165969,13.751538],[-89.16572,13.751918],[-89.165507,13.751918],[-89.165222,13.752126],[-89.164866,13.752195],[-89.164439,13.752472],[-89.163941,13.75268],[-89.163763,13.752853],[-89.163691,13.75313],[-89.163478,13.753407],[-89.16298,13.754446],[-89.16298,13.754653],[-89.163051,13.754723],[-89.163122,13.755069],[-89.163264,13.755277],[-89.163264,13.755415],[-89.163691,13.756038],[-89.163798,13.756142],[-89.163941,13.756142],[-89.164083,13.755934],[-89.164225,13.755934],[-89.164617,13.756454],[-89.164617,13.756592],[-89.164759,13.7568],[-89.16483,13.757146],[-89.165044,13.757561],[-89.165044,13.757769],[-89.165115,13.757838],[-89.165115,13.758669],[-89.164973,13.758946],[-89.164795,13.759119],[-89.164581,13.759258],[-89.164083,13.759396],[-89.163656,13.759743],[-89.163229,13.75995],[-89.162588,13.760019],[-89.162339,13.759846],[-89.162339,13.759708],[-89.162161,13.759535],[-89.161876,13.759396],[-89.161592,13.759396],[-89.161271,13.759708],[-89.161271,13.759846],[-89.161129,13.760123],[-89.160773,13.760539],[-89.160702,13.760816],[-89.160915,13.7613],[-89.160987,13.761647],[-89.161414,13.762408],[-89.161414,13.762685],[-89.161485,13.762754],[-89.161414,13.762893],[-89.161485,13.762962],[-89.161414,13.763724],[-89.160275,13.764901],[-89.160133,13.765178],[-89.160133,13.765455],[-89.160382,13.765766],[-89.160595,13.765905],[-89.160738,13.765974],[-89.161022,13.765974],[-89.161093,13.766043],[-89.161307,13.766043],[-89.162019,13.766736],[-89.16209,13.766736],[-89.162303,13.766944],[-89.162659,13.767082],[-89.163015,13.767082],[-89.163264,13.76684],[-89.163478,13.766493],[-89.164012,13.765974],[-89.164154,13.765974],[-89.164439,13.766113],[-89.165257,13.76684],[-89.165329,13.766978],[-89.16419,13.768155],[-89.164119,13.768432],[-89.164332,13.768709],[-89.164332,13.768848],[-89.164154,13.76909],[-89.163941,13.769159],[-89.163834,13.769263],[-89.163834,13.769956],[-89.163905,13.770025],[-89.163905,13.77044],[-89.163976,13.770509],[-89.163976,13.771133],[-89.164083,13.771236],[-89.165222,13.771236],[-89.165685,13.771756],[-89.165685,13.771825],[-89.165898,13.771963],[-89.165827,13.77224],[-89.165578,13.772483],[-89.165435,13.772552],[-89.164866,13.772552],[-89.164688,13.772656],[-89.164688,13.772864],[-89.16483,13.773141],[-89.16483,13.773418],[-89.164688,13.773556],[-89.164688,13.773695],[-89.164617,13.773764],[-89.164688,13.775287],[-89.165186,13.775841],[-89.165364,13.776153],[-89.165435,13.776153],[-89.16629,13.776845],[-89.166432,13.776845],[-89.166645,13.776637],[-89.166823,13.776326],[-89.167073,13.776083],[-89.167357,13.776153],[-89.167784,13.776499],[-89.167927,13.776499],[-89.168283,13.776706],[-89.168923,13.776706],[-89.16903,13.77681],[-89.169101,13.77688],[-89.169101,13.777018],[-89.168816,13.777226],[-89.168816,13.777434],[-89.169457,13.778057],[-89.169457,13.778749],[-89.169528,13.778818],[-89.169528,13.779511],[-89.169599,13.77958],[-89.169599,13.779788],[-89.169671,13.779857],[-89.169671,13.779995],[-89.169955,13.780203],[-89.17024,13.780688],[-89.17024,13.781034],[-89.170169,13.781103],[-89.170169,13.781726],[-89.170062,13.78183],[-89.169279,13.781969],[-89.168923,13.782246],[-89.168211,13.782315],[-89.168033,13.782419],[-89.167962,13.784081],[-89.167856,13.784184],[-89.1675,13.784254],[-89.167428,13.784323],[-89.167144,13.784323],[-89.166503,13.784738],[-89.166218,13.785015],[-89.166147,13.785015],[-89.164937,13.786054],[-89.164368,13.786123],[-89.164297,13.786192],[-89.164012,13.786192],[-89.163656,13.786331],[-89.163371,13.786331],[-89.1633,13.7864],[-89.162873,13.7864],[-89.162802,13.786469],[-89.162375,13.7864],[-89.162303,13.786331],[-89.162019,13.786331],[-89.161948,13.786262],[-89.161093,13.786262],[-89.161022,13.786192],[-89.16031,13.786192],[-89.160239,13.786123],[-89.160097,13.786192],[-89.159599,13.786192],[-89.159527,13.786262],[-89.1591,13.786262],[-89.159029,13.786331],[-89.158531,13.786331],[-89.157677,13.785915],[-89.157534,13.785915],[-89.157357,13.785742],[-89.157357,13.785604],[-89.156787,13.784565],[-89.155755,13.783423],[-89.155684,13.783492],[-89.15547,13.783492],[-89.155114,13.783631],[-89.154616,13.783631],[-89.154509,13.783527],[-89.15458,13.782973],[-89.154367,13.782557],[-89.154367,13.782003],[-89.15426,13.7819],[-89.153975,13.7819],[-89.153798,13.781726],[-89.153726,13.781311],[-89.153548,13.781138],[-89.153406,13.781138],[-89.153015,13.780896],[-89.152587,13.780272],[-89.15184,13.779407],[-89.151342,13.779476],[-89.151093,13.779303],[-89.151093,13.779095],[-89.151164,13.779026],[-89.151306,13.778541],[-89.150879,13.778126],[-89.150879,13.77778],[-89.151093,13.777364],[-89.151164,13.776741],[-89.151306,13.776464],[-89.151306,13.776326],[-89.15152,13.775979],[-89.151662,13.774941],[-89.151271,13.774491],[-89.150879,13.774248],[-89.150737,13.773487],[-89.150559,13.773314],[-89.150061,13.773106],[-89.14974,13.772794],[-89.149028,13.77141],[-89.149028,13.771271],[-89.148815,13.770994],[-89.148815,13.770856],[-89.148744,13.770786],[-89.148744,13.770232],[-89.148673,13.770094],[-89.148032,13.769609],[-89.148032,13.76954],[-89.147676,13.769125],[-89.14732,13.768432],[-89.147249,13.768086],[-89.147107,13.767809],[-89.145897,13.766701],[-89.145968,13.766563],[-89.146075,13.766528],[-89.14643,13.766736],[-89.147,13.766736],[-89.147071,13.766805],[-89.147285,13.766805],[-89.147569,13.766944],[-89.147925,13.766944],[-89.148281,13.767082],[-89.149206,13.767013],[-89.149313,13.766909],[-89.14974,13.766009],[-89.149918,13.765836],[-89.150737,13.765316],[-89.150737,13.765247],[-89.151662,13.764209],[-89.151662,13.764139],[-89.152303,13.763447],[-89.152445,13.762962],[-89.152516,13.762893],[-89.152516,13.762754],[-89.152694,13.762512],[-89.152908,13.762651],[-89.153264,13.762651],[-89.153335,13.76272],[-89.153477,13.76272],[-89.153798,13.762339],[-89.154189,13.762027],[-89.155186,13.761889],[-89.155257,13.76182],[-89.155541,13.76182],[-89.155613,13.761751],[-89.155897,13.761751],[-89.156751,13.761335],[-89.156929,13.761162],[-89.157072,13.760885],[-89.157285,13.760677],[-89.157285,13.76047],[-89.157214,13.7604],[-89.157214,13.760262],[-89.157285,13.760193],[-89.157285,13.757908],[-89.157357,13.757838],[-89.157357,13.757561],[-89.157499,13.757284],[-89.15757,13.756731],[-89.157641,13.756661],[-89.157712,13.756246],[-89.157784,13.756177],[-89.157855,13.755692],[-89.157926,13.755623],[-89.157997,13.754723],[-89.158068,13.754653],[-89.158068,13.754169],[-89.158139,13.754099],[-89.158139,13.753892],[-89.158282,13.753615],[-89.158282,13.753407],[-89.158353,13.753338],[-89.158353,13.752645],[-89.157997,13.751814],[-89.158068,13.751676],[-89.158068,13.75133],[-89.158139,13.751261],[-89.158139,13.750776],[-89.157997,13.750637],[-89.157784,13.750222],[-89.158033,13.74998],[-89.158531,13.74991],[-89.158602,13.749841],[-89.160026,13.749841],[-89.160097,13.749772]]]]}},{"type":"Feature","properties":{"zona":15,"lab":[13.783875,-89.169675]},"geometry":{"type":"MultiPolygon","coordinates":[[[[-89.171414,13.780584],[-89.171592,13.780757],[-89.171877,13.781311],[-89.171877,13.781449],[-89.172304,13.782211],[-89.172304,13.78235],[-89.172518,13.782696],[-89.172411,13.7828],[-89.17177,13.7828],[-89.171521,13.782973],[-89.17145,13.783527],[-89.171379,13.783596],[-89.171379,13.78505],[-89.171272,13.785154],[-89.171059,13.785154],[-89.170809,13.785258],[-89.170596,13.785673],[-89.169884,13.786504],[-89.169884,13.786781],[-89.170026,13.786989],[-89.170026,13.787266],[-89.169955,13.787335],[-89.169955,13.788166],[-89.169884,13.788235],[-89.169884,13.789066],[-89.169813,13.789204],[-89.1675,13.791247],[-89.167215,13.791385],[-89.167037,13.791143],[-89.167037,13.790035],[-89.166966,13.789966],[-89.166966,13.788858],[-89.167037,13.788789],[-89.167037,13.788374],[-89.166966,13.788304],[-89.166966,13.788027],[-89.166681,13.787612],[-89.166681,13.787335],[-89.166752,13.787266],[-89.166752,13.786989],[-89.166966,13.786712],[-89.16725,13.786158],[-89.167322,13.785881],[-89.167001,13.7855],[-89.166503,13.785292],[-89.166325,13.78505],[-89.166325,13.784911],[-89.167144,13.784323],[-89.167428,13.784323],[-89.1675,13.784254],[-89.167962,13.78415],[-89.168033,13.782488],[-89.168211,13.782315],[-89.168923,13.782246],[-89.169279,13.781969],[-89.169849,13.7819],[-89.170204,13.781761],[-89.170276,13.78183],[-89.17056,13.78183],[-89.170987,13.781553],[-89.171237,13.781311],[-89.171237,13.781172],[-89.171308,13.781103],[-89.171308,13.780688],[-89.171414,13.780584]]]]}},{"type":"Feature","properties":{"zona":16,"lab":[13.753475,-89.183149]},"geometry":{"type":"MultiPolygon","coordinates":[[[[-89.175045,13.746795],[-89.175329,13.746933],[-89.176539,13.747902],[-89.177322,13.74811],[-89.177394,13.748179],[-89.178177,13.748387],[-89.178675,13.748595],[-89.178888,13.748595],[-89.17896,13.748664],[-89.179315,13.748664],[-89.179387,13.748733],[-89.179671,13.748733],[-89.179743,13.748803],[-89.180098,13.748803],[-89.18017,13.748872],[-89.180526,13.748872],[-89.180597,13.748941],[-89.180953,13.748941],[-89.181024,13.74901],[-89.18138,13.74901],[-89.181451,13.749079],[-89.181736,13.749079],[-89.181807,13.749149],[-89.182163,13.749149],[-89.182234,13.749218],[-89.182874,13.749287],[-89.183159,13.749426],[-89.183942,13.749633],[-89.184013,13.749703],[-89.184156,13.749703],[-89.185864,13.750534],[-89.186398,13.751053],[-89.186398,13.751122],[-89.186825,13.751538],[-89.186825,13.751745],[-89.186896,13.751814],[-89.186896,13.75223],[-89.186967,13.752299],[-89.186967,13.752784],[-89.187038,13.752853],[-89.187038,13.753269],[-89.18711,13.753338],[-89.18711,13.753546],[-89.187537,13.754169],[-89.187608,13.754792],[-89.188498,13.755588],[-89.188782,13.755727],[-89.188925,13.755727],[-89.189031,13.75583],[-89.189031,13.755969],[-89.188676,13.756384],[-89.188462,13.7568],[-89.188177,13.757077],[-89.188177,13.757146],[-89.187964,13.757354],[-89.187537,13.757977],[-89.187252,13.758254],[-89.187181,13.758462],[-89.187038,13.7586],[-89.186967,13.758808],[-89.186825,13.758946],[-89.186754,13.759154],[-89.186433,13.759604],[-89.186291,13.759604],[-89.186006,13.759466],[-89.185793,13.759466],[-89.185722,13.759396],[-89.185437,13.759396],[-89.185366,13.759327],[-89.184939,13.759604],[-89.184084,13.759743],[-89.183729,13.75995],[-89.183586,13.75995],[-89.183088,13.759466],[-89.182946,13.759396],[-89.182376,13.759396],[-89.182269,13.759292],[-89.182341,13.758808],[-89.182234,13.758704],[-89.18202,13.758704],[-89.181878,13.758635],[-89.181629,13.758254],[-89.181629,13.758115],[-89.181486,13.757838],[-89.181486,13.757008],[-89.180597,13.75635],[-89.179031,13.755588],[-89.178568,13.755277],[-89.178568,13.753615],[-89.178355,13.75313],[-89.178355,13.752922],[-89.178212,13.752715],[-89.178212,13.752576],[-89.177999,13.752161],[-89.177999,13.752022],[-89.177856,13.751814],[-89.177856,13.751676],[-89.177643,13.751261],[-89.176717,13.750291],[-89.176717,13.750153],[-89.176433,13.74946],[-89.176255,13.749356],[-89.175614,13.749356],[-89.175543,13.749287],[-89.175329,13.749287],[-89.175045,13.749079],[-89.174689,13.749218],[-89.174191,13.749218],[-89.174084,13.749114],[-89.174155,13.749045],[-89.174155,13.748352],[-89.174297,13.748006],[-89.17444,13.747868],[-89.17444,13.747452],[-89.174582,13.747175],[-89.175045,13.746795]]]]}},{"type":"Feature","properties":{"zona":17,"lab":[13.759281,-89.176086]},"geometry":{"type":"MultiPolygon","coordinates":[[[[-89.174618,13.746656],[-89.17476,13.746656],[-89.175009,13.746829],[-89.174582,13.747175],[-89.17444,13.747452],[-89.17444,13.747868],[-89.174297,13.748006],[-89.174155,13.748352],[-89.174155,13.749045],[-89.174084,13.749114],[-89.174191,13.749218],[-89.174689,13.749218],[-89.175045,13.749079],[-89.175329,13.749287],[-89.175543,13.749287],[-89.175614,13.749356],[-89.176255,13.749356],[-89.176504,13.749599],[-89.176646,13.750083],[-89.176717,13.750153],[-89.176717,13.750291],[-89.177643,13.751261],[-89.177856,13.751676],[-89.177856,13.751814],[-89.177999,13.752022],[-89.17807,13.752368],[-89.178212,13.752576],[-89.178212,13.752715],[-89.178355,13.752922],[-89.178355,13.75313],[-89.178568,13.753615],[-89.178568,13.755277],[-89.179031,13.755588],[-89.180597,13.75635],[-89.181486,13.757008],[-89.181486,13.757838],[-89.181558,13.757908],[-89.181629,13.758254],[-89.181771,13.758462],[-89.181771,13.7586],[-89.18202,13.758704],[-89.182234,13.758704],[-89.182341,13.758808],[-89.182341,13.759016],[-89.182269,13.759085],[-89.182305,13.759396],[-89.182946,13.759396],[-89.183088,13.759466],[-89.183586,13.75995],[-89.183729,13.75995],[-89.184084,13.759743],[-89.184939,13.759604],[-89.185366,13.759327],[-89.185437,13.759396],[-89.185722,13.759396],[-89.185793,13.759466],[-89.18622,13.759535],[-89.186398,13.759708],[-89.185828,13.760608],[-89.185828,13.761231],[-89.186184,13.761577],[-89.186327,13.761924],[-89.186149,13.762097],[-89.185722,13.762166],[-89.18565,13.762097],[-89.185508,13.762097],[-89.185366,13.761958],[-89.18501,13.761958],[-89.184796,13.761751],[-89.184156,13.761751],[-89.183871,13.761889],[-89.183657,13.761889],[-89.18323,13.762166],[-89.183088,13.762166],[-89.183017,13.762097],[-89.182376,13.762166],[-89.182127,13.762339],[-89.182127,13.762478],[-89.181949,13.762651],[-89.181878,13.762581],[-89.181522,13.762581],[-89.181166,13.76272],[-89.180668,13.762789],[-89.179956,13.763066],[-89.179743,13.763066],[-89.179529,13.763205],[-89.179315,13.763205],[-89.179244,13.763274],[-89.17896,13.763274],[-89.178675,13.763412],[-89.178461,13.763412],[-89.178248,13.763551],[-89.177749,13.763689],[-89.177394,13.763897],[-89.177251,13.763897],[-89.177002,13.76407],[-89.176931,13.764209],[-89.177002,13.764416],[-89.17686,13.764624],[-89.17686,13.764762],[-89.177002,13.76497],[-89.177002,13.765247],[-89.176895,13.765351],[-89.176184,13.765351],[-89.176077,13.765247],[-89.176006,13.765178],[-89.176006,13.764762],[-89.175934,13.764693],[-89.175934,13.764486],[-89.175685,13.764174],[-89.175401,13.764174],[-89.175329,13.764243],[-89.175258,13.764174],[-89.17476,13.764174],[-89.174689,13.764105],[-89.174546,13.764174],[-89.174048,13.764174],[-89.173977,13.764243],[-89.173479,13.764243],[-89.173408,13.764174],[-89.172411,13.764174],[-89.17234,13.764105],[-89.171628,13.764105],[-89.171557,13.764174],[-89.171272,13.764174],[-89.171023,13.764347],[-89.171023,13.766355],[-89.171201,13.766528],[-89.171557,13.766528],[-89.171664,13.766632],[-89.171664,13.766978],[-89.171343,13.767497],[-89.170916,13.767497],[-89.170738,13.767671],[-89.170809,13.768294],[-89.170703,13.768398],[-89.170276,13.768398],[-89.169991,13.768605],[-89.169849,13.768605],[-89.169457,13.768155],[-89.169457,13.767948],[-89.169386,13.767878],[-89.169386,13.767463],[-89.169813,13.766909],[-89.169813,13.76677],[-89.169884,13.766701],[-89.169884,13.766286],[-89.169813,13.766217],[-89.169813,13.766078],[-89.169599,13.76587],[-89.169528,13.765663],[-89.169315,13.765455],[-89.169101,13.765039],[-89.168816,13.764693],[-89.168461,13.764416],[-89.168389,13.764209],[-89.169066,13.763828],[-89.169279,13.763828],[-89.169457,13.763655],[-89.169528,13.763516],[-89.169528,13.763101],[-89.169457,13.763031],[-89.169457,13.762685],[-89.169386,13.762616],[-89.169386,13.761993],[-89.169528,13.761785],[-89.169599,13.760885],[-89.169777,13.760643],[-89.170062,13.760573],[-89.170276,13.760435],[-89.170418,13.760435],[-89.170952,13.759985],[-89.171023,13.759846],[-89.171023,13.758808],[-89.17145,13.758323],[-89.17145,13.758185],[-89.171023,13.757561],[-89.171094,13.757423],[-89.171094,13.756177],[-89.171308,13.755761],[-89.171308,13.755277],[-89.171592,13.75493],[-89.171806,13.754376],[-89.172091,13.75403],[-89.172091,13.753684],[-89.172304,13.753407],[-89.172375,13.752645],[-89.172518,13.752438],[-89.172518,13.751884],[-89.172304,13.751399],[-89.172233,13.750845],[-89.171735,13.750291],[-89.171664,13.749668],[-89.171735,13.749599],[-89.171806,13.749183],[-89.171948,13.748976],[-89.171948,13.748837],[-89.173479,13.74721],[-89.174618,13.746656]]]]}},{"type":"Feature","properties":{"zona":18,"lab":[13.746024,-89.18475]},"geometry":{"type":"MultiPolygon","coordinates":[[[[-89.181237,13.741186],[-89.18138,13.741186],[-89.182234,13.741602],[-89.182412,13.741775],[-89.182341,13.742329],[-89.18259,13.74264],[-89.183088,13.74264],[-89.183586,13.742086],[-89.183657,13.742155],[-89.183871,13.742155],[-89.184156,13.742363],[-89.184939,13.742294],[-89.185117,13.742121],[-89.185188,13.741775],[-89.185295,13.741671],[-89.185508,13.741671],[-89.185686,13.741844],[-89.185615,13.741982],[-89.185615,13.742259],[-89.185722,13.742432],[-89.185864,13.742432],[-89.186078,13.742571],[-89.186505,13.742571],[-89.187501,13.743263],[-89.188213,13.743263],[-89.188426,13.743402],[-89.188569,13.743402],[-89.188996,13.743609],[-89.189743,13.744267],[-89.189672,13.744683],[-89.189743,13.744752],[-89.189743,13.745098],[-89.189814,13.745167],[-89.189814,13.745306],[-89.189708,13.74541],[-89.189565,13.74541],[-89.189316,13.745721],[-89.189316,13.746829],[-89.189494,13.747002],[-89.190277,13.747002],[-89.190348,13.747072],[-89.19163,13.747072],[-89.191736,13.747175],[-89.191736,13.747868],[-89.191665,13.747937],[-89.191665,13.74946],[-89.191594,13.74953],[-89.191594,13.750014],[-89.19138,13.75036],[-89.19138,13.750568],[-89.191309,13.750637],[-89.191309,13.750776],[-89.19138,13.750845],[-89.19138,13.751538],[-89.190597,13.752645],[-89.190384,13.753061],[-89.190384,13.753199],[-89.190242,13.753407],[-89.190242,13.753546],[-89.190099,13.753753],[-89.190099,13.753892],[-89.189957,13.754099],[-89.189957,13.754238],[-89.189814,13.754446],[-89.189814,13.754584],[-89.189601,13.75493],[-89.189601,13.755069],[-89.189316,13.755415],[-89.189245,13.755623],[-89.189067,13.755796],[-89.188498,13.755588],[-89.187608,13.754792],[-89.187537,13.754169],[-89.18711,13.753546],[-89.18711,13.753338],[-89.187038,13.753269],[-89.187038,13.752853],[-89.186967,13.752784],[-89.186967,13.752299],[-89.186896,13.75223],[-89.186896,13.751814],[-89.186825,13.751745],[-89.186825,13.751538],[-89.185864,13.750534],[-89.184156,13.749703],[-89.184013,13.749703],[-89.183942,13.749633],[-89.183159,13.749426],[-89.182874,13.749287],[-89.182234,13.749218],[-89.182163,13.749149],[-89.181807,13.749149],[-89.181736,13.749079],[-89.181451,13.749079],[-89.18138,13.74901],[-89.181024,13.74901],[-89.180953,13.748941],[-89.180597,13.748941],[-89.180526,13.748872],[-89.18017,13.748872],[-89.180098,13.748803],[-89.179743,13.748803],[-89.179671,13.748733],[-89.179387,13.748733],[-89.179315,13.748664],[-89.17896,13.748664],[-89.178888,13.748595],[-89.178675,13.748595],[-89.17839,13.748456],[-89.178248,13.748456],[-89.178177,13.748387],[-89.178034,13.748387],[-89.177109,13.748041],[-89.176539,13.747902],[-89.175329,13.746933],[-89.175258,13.746933],[-89.17508,13.74676],[-89.175151,13.746691],[-89.175151,13.746552],[-89.174724,13.746206],[-89.174724,13.745929],[-89.174796,13.745791],[-89.174902,13.745687],[-89.175258,13.745548],[-89.175579,13.745237],[-89.17565,13.745029],[-89.175756,13.744925],[-89.176326,13.744994],[-89.176753,13.745202],[-89.176967,13.745202],[-89.177287,13.744683],[-89.177287,13.744406],[-89.177465,13.744233],[-89.177821,13.744233],[-89.178105,13.743886],[-89.17839,13.743817],[-89.178817,13.74354],[-89.179031,13.743471],[-89.180454,13.741948],[-89.18081,13.741878],[-89.180988,13.741705],[-89.181131,13.741498],[-89.181131,13.74129],[-89.181237,13.741186]]]]}}]}